{"type": "FeatureCollection", "district": "ilsan", "features": [{"type": "Feature", "geometry": {"type": "Polygon", "coordinates": [[[126.7666153, 37.66175165], [126.76688898, 37.66192033], [126.7669638, 37.66191209], [126.76719126, 37.66167902], [126.76718434, 37.66163843], [126.76689799, 37.66146155], [126.7666153, 37.66175165]]]}, "properties": {"name": "남정씨티프라자", "status": "partial", "capacity": 68, "active": 38, "industry": "의약·화장품 소매", "vacancy_rate": 44.1, "vacancy_rate_lo": null, "vacancy_rate_hi": null, "stores": 38, "source": "stores+ledger", "capacity_method": "expos_units", "active_pip": 0, "licensed": 9, "com_floors": null, "occ_floors": null, "unknown_n": null, "id": "4128510400107600000-1", "pnu": "4128510400107600000", "floors": 8, "height": 34.6}}, {"type": "Feature", "geometry": {"type": "Polygon", "coordinates": [[[126.7685022, 37.6599924], [126.76850095, 37.65999159], [126.76850016, 37.6599924], [126.76839032, 37.66010624], [126.76828808, 37.66004099], [126.76817515, 37.66016096], [126.76844471, 37.66032556], [126.76850798, 37.66031884], [126.76875902, 37.66005886], [126.76864919, 37.65999242], [126.76860326, 37.65996467], [126.76857541, 37.65999246], [126.76854767, 37.66002006], [126.7685022, 37.6599924]]]}, "properties": {"name": "에메랄드빌딩", "status": "partial", "capacity": 37, "active": 33, "industry": "한식", "vacancy_rate": 10.8, "vacancy_rate_lo": null, "vacancy_rate_hi": null, "stores": 33, "source": "stores+ledger", "capacity_method": "expos_units", "active_pip": 0, "licensed": 13, "com_floors": null, "occ_floors": null, "unknown_n": null, "id": "4128510400107560000-1", "pnu": "4128510400107560000", "floors": 6, "height": 23.25}}, {"type": "Feature", "geometry": {"type": "Polygon", "coordinates": [[[126.76745519, 37.65993518], [126.76739431, 37.6599411], [126.76734405, 37.65999235], [126.767171, 37.66016932], [126.76717712, 37.66020672], [126.76804876, 37.66074869], [126.76809865, 37.66074203], [126.76832126, 37.66051489], [126.76831405, 37.66046595], [126.76755089, 37.6599924], [126.76745519, 37.65993518]]]}, "properties": {"name": "로데오탑", "status": "full", "capacity": 67, "active": 67, "industry": "한식", "vacancy_rate": 0.0, "vacancy_rate_lo": null, "vacancy_rate_hi": null, "stores": 67, "source": "stores+ledger", "capacity_method": "expos_units", "active_pip": 0, "licensed": 28, "com_floors": null, "occ_floors": null, "unknown_n": null, "id": "4128510400107570000-1", "pnu": "4128510400107570000", "floors": 7, "height": 30.2}}, {"type": "Feature", "geometry": {"type": "Polygon", "coordinates": [[[126.76720334, 37.66195153], [126.76721952, 37.66196148], [126.76713016, 37.66204878], [126.76735481, 37.66218816], [126.76740367, 37.66221934], [126.76741906, 37.66222676], [126.76742722, 37.66222795], [126.7674364, 37.66222706], [126.76745058, 37.66222349], [126.76745966, 37.6622181], [126.76746422, 37.66220901], [126.76763295, 37.66204086], [126.76768482, 37.66198087], [126.76772086, 37.66194346], [126.76771657, 37.66193823], [126.76770821, 37.66189424], [126.76771662, 37.66185209], [126.76771811, 37.66184435], [126.76774438, 37.66177971], [126.76775076, 37.66176864], [126.76777322, 37.66172625], [126.76779998, 37.66168594], [126.76783183, 37.66164843], [126.76788732, 37.66159169], [126.76792447, 37.66156113], [126.76796663, 37.66153004], [126.76792445, 37.66149905], [126.76776949, 37.66139981], [126.76773401, 37.66143569], [126.76772383, 37.66142927], [126.76762428, 37.66151773], [126.76720334, 37.66195153]]]}, "properties": {"name": "라페스타F", "status": "full", "capacity": 60, "active": 54, "industry": "한식", "vacancy_rate": 10.0, "vacancy_rate_lo": null, "vacancy_rate_hi": null, "stores": 54, "source": "stores+ledger", "capacity_method": "expos_units", "active_pip": 0, "licensed": 25, "com_floors": null, "occ_floors": null, "unknown_n": null, "id": "4128510400107610000-1", "pnu": "4128510400107610000", "floors": 4, "height": 26.37}}, {"type": "Feature", "geometry": {"type": "Polygon", "coordinates": [[[126.76997749, 37.65942942], [126.769993, 37.65943656], [126.77001964, 37.65940013], [126.76997743, 37.65938121], [126.76997313, 37.65937931], [126.76997743, 37.65937824], [126.76999126, 37.65937502], [126.77003417, 37.65935592], [126.77005655, 37.65933848], [126.77007634, 37.65931456], [126.77008546, 37.65929818], [126.77009119, 37.65927809], [126.77009237, 37.65926197], [126.77009095, 37.65924494], [126.77008828, 37.65923088], [126.77008108, 37.65921266], [126.77006991, 37.65919742], [126.77008401, 37.65918267], [126.7699775, 37.65913893], [126.76984655, 37.65908516], [126.76982616, 37.65911647], [126.76978904, 37.65910117], [126.76979075, 37.65909847], [126.76975487, 37.65908381], [126.76962003, 37.65929131], [126.76967504, 37.65931394], [126.76993162, 37.65941996], [126.76993755, 37.65941096], [126.76997749, 37.65942942]]]}, "properties": {"name": "루비튜스데이", "status": "partial", "capacity": 15, "active": 11, "industry": "한식", "vacancy_rate": 26.7, "vacancy_rate_lo": null, "vacancy_rate_hi": null, "stores": 11, "source": "stores+ledger", "capacity_method": "expos_units", "active_pip": 0, "licensed": 2, "com_floors": null, "occ_floors": null, "unknown_n": null, "id": "4128510400107690002-1", "pnu": "4128510400107690002", "floors": 4, "height": 0.0}}, {"type": "Feature", "geometry": {"type": "Polygon", "coordinates": [[[126.76718603, 37.66276491], [126.76721352, 37.66278154], [126.76721818, 37.66277659], [126.76727146, 37.66280877], [126.76727391, 37.66281923], [126.7672919, 37.66282845], [126.76729544, 37.66282414], [126.76743829, 37.66291407], [126.76743329, 37.66291901], [126.76746191, 37.66293601], [126.76759516, 37.66280284], [126.7676032, 37.66277132], [126.76760222, 37.66275726], [126.76759642, 37.66272869], [126.76758347, 37.6627038], [126.76757173, 37.66269116], [126.76745228, 37.66261731], [126.76741614, 37.66261157], [126.76738384, 37.66261105], [126.76734448, 37.66261854], [126.76732814, 37.66262482], [126.76731702, 37.66263047], [126.76718603, 37.66276491]]]}, "properties": {"name": "텐폴드프라자", "status": "partial", "capacity": 22, "active": 14, "industry": "비알코올 ", "vacancy_rate": 36.4, "vacancy_rate_lo": null, "vacancy_rate_hi": null, "stores": 14, "source": "stores+ledger", "capacity_method": "expos_units", "active_pip": 0, "licensed": 5, "com_floors": null, "occ_floors": null, "unknown_n": null, "id": "4128510400107350003-1", "pnu": "4128510400107350003", "floors": 5, "height": 21.75}}, {"type": "Feature", "geometry": {"type": "Polygon", "coordinates": [[[126.76839074, 37.66156115], [126.76839019, 37.66159088], [126.76860456, 37.66171808], [126.76867209, 37.66165136], [126.76869935, 37.66166872], [126.76920736, 37.66114986], [126.76918065, 37.66113332], [126.76923569, 37.66107711], [126.76901331, 37.66093945], [126.76901508, 37.66095044], [126.76893744, 37.66095128], [126.76879681, 37.66109138], [126.76876932, 37.66107547], [126.76873044, 37.66108007], [126.76869326, 37.66111892], [126.7686978, 37.66115029], [126.76872631, 37.66116764], [126.76868425, 37.6612081], [126.7686605, 37.66122905], [126.76864319, 37.66121829], [126.76850788, 37.66132118], [126.768559, 37.66135516], [126.76839475, 37.66151152], [126.7684058, 37.66156316], [126.76839074, 37.66156115]]]}, "properties": {"name": "라페스타C", "status": "partial", "capacity": 60, "active": 39, "industry": "섬유·의복·신발 소매", "vacancy_rate": 35.0, "vacancy_rate_lo": null, "vacancy_rate_hi": null, "stores": 39, "source": "stores+ledger", "capacity_method": "expos_units", "active_pip": 0, "licensed": 11, "com_floors": null, "occ_floors": null, "unknown_n": null, "id": "4128510400107640000-1", "pnu": "4128510400107640000", "floors": 5, "height": 27.63}}, {"type": "Feature", "geometry": {"type": "Polygon", "coordinates": [[[126.76997735, 37.66165637], [126.77007217, 37.66156016], [126.76997738, 37.66150114], [126.76953488, 37.66122609], [126.76951806, 37.66124237], [126.7694994, 37.6612299], [126.76947711, 37.66125211], [126.76946026, 37.66124036], [126.76927004, 37.66143451], [126.76928746, 37.66144535], [126.76926495, 37.66146711], [126.76928576, 37.66148148], [126.76927053, 37.66149659], [126.76980727, 37.66182903], [126.76997735, 37.66165637]]]}, "properties": {"name": "마이다스오피스텔", "status": "full", "capacity": 15, "active": 15, "industry": "의약·화장품 소매", "vacancy_rate": 0.0, "vacancy_rate_lo": null, "vacancy_rate_hi": null, "stores": 15, "source": "stores+ledger", "capacity_method": "expos_units", "active_pip": 0, "licensed": 2, "com_floors": null, "occ_floors": null, "unknown_n": null, "id": "4128510400107750001-1", "pnu": "4128510400107750001", "floors": 10, "height": 41.1}}, {"type": "Feature", "geometry": {"type": "Polygon", "coordinates": [[[126.7679052, 37.6633217], [126.76820068, 37.66350285], [126.76846037, 37.66323947], [126.76816548, 37.66305706], [126.76805211, 37.66317279], [126.76808344, 37.66319213], [126.76804614, 37.66323125], [126.768013, 37.66321127], [126.7679052, 37.6633217]]]}, "properties": {"name": "노블리제", "status": "partial", "capacity": 48, "active": 31, "industry": "주점", "vacancy_rate": 35.4, "vacancy_rate_lo": null, "vacancy_rate_hi": null, "stores": 31, "source": "stores+ledger", "capacity_method": "expos_units", "active_pip": 0, "licensed": 14, "com_floors": null, "occ_floors": null, "unknown_n": null, "id": "4128510400107340001-1", "pnu": "4128510400107340001", "floors": 8, "height": 31.9}}, {"type": "Feature", "geometry": {"type": "Polygon", "coordinates": [[[126.76794112, 37.66125355], [126.76819508, 37.66140801], [126.76878517, 37.66076266], [126.76867279, 37.660698], [126.76865922, 37.66071587], [126.76858878, 37.66067874], [126.76860084, 37.66066324], [126.76853044, 37.66061657], [126.76794112, 37.66125355]]]}, "properties": {"name": "라페스타D", "status": "full", "capacity": 54, "active": 54, "industry": "이용·미용", "vacancy_rate": 0.0, "vacancy_rate_lo": null, "vacancy_rate_hi": null, "stores": 54, "source": "stores+ledger", "capacity_method": "expos_units", "active_pip": 0, "licensed": 15, "com_floors": null, "occ_floors": null, "unknown_n": null, "id": "4128510400107650000-1", "pnu": "4128510400107650000", "floors": 5, "height": 27.63}}, {"type": "Feature", "geometry": {"type": "Polygon", "coordinates": [[[126.76873906, 37.65999242], [126.76880174, 37.66002399], [126.76880243, 37.66002309], [126.76882791, 37.65999241], [126.76903109, 37.65974838], [126.76903109, 37.65974829], [126.7690312, 37.65974829], [126.76901639, 37.6597024], [126.76871641, 37.65955486], [126.76860968, 37.65968655], [126.76872342, 37.65974255], [126.76862737, 37.65986453], [126.76867592, 37.65988868], [126.76863598, 37.65994059], [126.76873906, 37.65999242]]]}, "properties": {"name": "크리스탈빌딩", "status": "high", "capacity": 67, "active": 17, "industry": "유원지·오락", "vacancy_rate": 74.6, "vacancy_rate_lo": null, "vacancy_rate_hi": null, "stores": 17, "source": "stores+ledger", "capacity_method": "expos_units", "active_pip": 0, "licensed": 4, "com_floors": null, "occ_floors": null, "unknown_n": null, "id": "4128510400107560003-1", "pnu": "4128510400107560003", "floors": 10, "height": 38.35}}, {"type": "Feature", "geometry": {"type": "Polygon", "coordinates": [[[126.7666019, 37.66172959], [126.76667194, 37.66165756], [126.76634776, 37.66145815], [126.76644588, 37.66135879], [126.76676836, 37.66155837], [126.76683829, 37.66148634], [126.76681068, 37.66147034], [126.76682285, 37.66145712], [126.76625276, 37.6611073], [126.7662423, 37.66111818], [126.76621255, 37.66110091], [126.76614625, 37.66117195], [126.76617848, 37.66119391], [126.76608035, 37.66129282], [126.76604744, 37.66127221], [126.76597751, 37.66134262], [126.76600556, 37.66136025], [126.76599522, 37.66137068], [126.76656453, 37.66172014], [126.76657272, 37.66171168], [126.7666019, 37.66172959]]]}, "properties": {"name": "한라밀라트", "status": "full", "capacity": 11, "active": 11, "industry": "이용·미용", "vacancy_rate": 0.0, "vacancy_rate_lo": null, "vacancy_rate_hi": null, "stores": 11, "source": "stores+ledger", "capacity_method": "expos_units", "active_pip": 0, "licensed": 0, "com_floors": null, "occ_floors": null, "unknown_n": null, "id": "4128510400107600001-1", "pnu": "4128510400107600001", "floors": 10, "height": 43.6}}, {"type": "Feature", "geometry": {"type": "Polygon", "coordinates": [[[126.76537562, 37.66089421], [126.76539471, 37.66098745], [126.76576015, 37.6611952], [126.76582849, 37.6611858], [126.76640543, 37.66054845], [126.76640002, 37.66051248], [126.76594946, 37.66025696], [126.76537562, 37.66089421]]]}, "properties": {"name": "삼성라끄빌", "status": "full", "capacity": 32, "active": 32, "industry": "기타 교육", "vacancy_rate": 0.0, "vacancy_rate_lo": null, "vacancy_rate_hi": null, "stores": 32, "source": "stores+ledger", "capacity_method": "expos_units", "active_pip": 0, "licensed": 0, "com_floors": null, "occ_floors": null, "unknown_n": null, "id": "4128510400107510000-1", "pnu": "4128510400107510000", "floors": 15, "height": 53.315}}, {"type": "Feature", "geometry": {"type": "Polygon", "coordinates": [[[126.77036122, 37.66278543], [126.77060032, 37.66254435], [126.77062882, 37.66256333], [126.77090395, 37.66228601], [126.77091441, 37.66227278], [126.77091956, 37.66225928], [126.77092095, 37.66224838], [126.77091862, 37.66223585], [126.77091445, 37.66222359], [126.7709078, 37.66221285], [126.77090113, 37.66220599], [126.770756, 37.66211877], [126.77043879, 37.6624443], [126.77022386, 37.66231106], [126.76998623, 37.66255243], [126.77036122, 37.66278543]]]}, "properties": {"name": "장항동 781", "status": "empty", "capacity": 7, "active": 0, "industry": "", "vacancy_rate": 100.0, "source": "polygon_only", "capacity_method": "floor_approx", "active_pip": 0, "licensed": 0, "id": "4128510400107810000-1", "pnu": "4128510400107810000", "floors": 7, "height": 43.5}}, {"type": "Feature", "geometry": {"type": "Polygon", "coordinates": [[[126.76869985, 37.65956024], [126.76867529, 37.65954784], [126.76868053, 37.65954128], [126.76864737, 37.65952454], [126.76864635, 37.6595258], [126.76843556, 37.65941663], [126.76843806, 37.65941249], [126.76840456, 37.65939522], [126.76840001, 37.65940079], [126.76837727, 37.65938904], [126.7681626, 37.6596489], [126.76828038, 37.6597104], [126.76831303, 37.65967091], [126.76839585, 37.65971468], [126.76836173, 37.65975553], [126.76847985, 37.65981793], [126.76869985, 37.65956024]]]}, "properties": {"name": "일부호", "status": "high", "capacity": 11, "active": 4, "industry": "종합 소매", "vacancy_rate": 63.6, "vacancy_rate_lo": null, "vacancy_rate_hi": null, "stores": 4, "source": "stores+ledger", "capacity_method": "expos_units", "active_pip": 0, "licensed": 0, "com_floors": null, "occ_floors": null, "unknown_n": null, "id": "4128510400107560004-1", "pnu": "4128510400107560004", "floors": 9, "height": 38.7}}, {"type": "Feature", "geometry": {"type": "Polygon", "coordinates": [[[126.76703044, 37.66136049], [126.76730294, 37.6615298], [126.76732845, 37.66152769], [126.76756345, 37.66128984], [126.76756357, 37.66128985], [126.7675574, 37.66126884], [126.76728854, 37.66109828], [126.76703044, 37.66136049]]]}, "properties": {"name": "하임빌로데오빌딩", "status": "full", "capacity": 40, "active": 40, "industry": "주점", "vacancy_rate": 0.0, "vacancy_rate_lo": null, "vacancy_rate_hi": null, "stores": 40, "source": "stores+ledger", "capacity_method": "expos_units", "active_pip": 0, "licensed": 17, "com_floors": null, "occ_floors": null, "unknown_n": null, "id": "4128510400107590000-1", "pnu": "4128510400107590000", "floors": 9, "height": 37.7}}, {"type": "Feature", "geometry": {"type": "Polygon", "coordinates": [[[126.77001132, 37.65973687], [126.7701893, 37.65981519], [126.770315, 37.65963469], [126.77013702, 37.65955636], [126.77001132, 37.65973687]]]}, "properties": {"name": "장항동 770-1", "status": "partial", "capacity": 3, "active": 2, "industry": "비알코올 ", "vacancy_rate": 33.3, "vacancy_rate_lo": 33.3, "vacancy_rate_hi": 100.0, "stores": 2, "source": "stores+ledger", "capacity_method": "floor_ouln", "active_pip": 0, "licensed": 0, "com_floors": [1, 2, 3], "occ_floors": [], "unknown_n": 2, "id": "4128510400107700001-1", "pnu": "4128510400107700001", "floors": 3, "height": 13.15}}, {"type": "Feature", "geometry": {"type": "Polygon", "coordinates": [[[126.76835916, 37.66284355], [126.76864239, 37.66255634], [126.76837554, 37.6623931], [126.76832861, 37.66239751], [126.76810655, 37.66262249], [126.76812298, 37.66269776], [126.76835916, 37.66284355]]]}, "properties": {"name": "남정씨티프라자", "status": "partial", "capacity": 69, "active": 36, "industry": "주점", "vacancy_rate": 47.8, "vacancy_rate_lo": null, "vacancy_rate_hi": null, "stores": 36, "source": "stores+ledger", "capacity_method": "expos_units", "active_pip": 0, "licensed": 11, "com_floors": null, "occ_floors": null, "unknown_n": null, "id": "4128510400107780002-1", "pnu": "4128510400107780002", "floors": 8, "height": 35.15}}, {"type": "Feature", "geometry": {"type": "Polygon", "coordinates": [[[126.76700696, 37.66265705], [126.76667859, 37.66245404], [126.7662324, 37.6629076], [126.7662406, 37.66296294], [126.76647181, 37.66310395], [126.76650764, 37.66306898], [126.76652098, 37.66307765], [126.76672952, 37.66286418], [126.76677511, 37.66289238], [126.76700696, 37.66265705]]]}, "properties": {"name": "로데오존", "status": "partial", "capacity": 71, "active": 49, "industry": "유원지·오락", "vacancy_rate": 31.0, "vacancy_rate_lo": null, "vacancy_rate_hi": null, "stores": 49, "source": "stores+ledger", "capacity_method": "expos_units", "active_pip": 0, "licensed": 28, "com_floors": null, "occ_floors": null, "unknown_n": null, "id": "4128510400107410000-1", "pnu": "4128510400107410000", "floors": 5, "height": 22.25}}, {"type": "Feature", "geometry": {"type": "Polygon", "coordinates": [[[126.77016262, 37.6595588], [126.77016023, 37.65956294], [126.77034473, 37.65963719], [126.77035167, 37.6596272], [126.77044008, 37.65965927], [126.77058557, 37.65941241], [126.77056937, 37.65937381], [126.77054475, 37.65934818], [126.77050934, 37.65932567], [126.77047947, 37.65931183], [126.77041345, 37.65929377], [126.77038127, 37.65929299], [126.77035122, 37.65929662], [126.77031219, 37.65931123], [126.77016262, 37.6595588]]]}, "properties": {"name": "이레21빌딩", "status": "partial", "capacity": 27, "active": 17, "industry": "기타 교육", "vacancy_rate": 37.0, "vacancy_rate_lo": null, "vacancy_rate_hi": null, "stores": 17, "source": "stores+ledger", "capacity_method": "expos_units", "active_pip": 0, "licensed": 1, "com_floors": null, "occ_floors": null, "unknown_n": null, "id": "4128510400107700002-1", "pnu": "4128510400107700002", "floors": 5, "height": 19.95}}, {"type": "Feature", "geometry": {"type": "Polygon", "coordinates": [[[126.76785276, 37.66205833], [126.76762661, 37.66228872], [126.76766291, 37.66231275], [126.76762221, 37.66235511], [126.76784798, 37.66249494], [126.76800841, 37.66233452], [126.76803104, 37.66234835], [126.76812006, 37.66225627], [126.76835211, 37.66202265], [126.76835166, 37.66202022], [126.76838407, 37.6619892], [126.76836146, 37.66197294], [126.76848607, 37.66184489], [126.76837217, 37.66177375], [126.7682794, 37.66171914], [126.76826962, 37.66173201], [126.76824071, 37.66177015], [126.76821875, 37.66179706], [126.76819271, 37.66182718], [126.76816303, 37.66185424], [126.76812451, 37.66188669], [126.76808259, 37.66191724], [126.76803716, 37.66194742], [126.76799073, 37.66197436], [126.76794341, 37.66199273], [126.76791721, 37.66199818], [126.76785276, 37.66205833]]]}, "properties": {"name": "라페스타E", "status": "full", "capacity": 57, "active": 52, "industry": "이용·미용", "vacancy_rate": 8.8, "vacancy_rate_lo": null, "vacancy_rate_hi": null, "stores": 52, "source": "stores+ledger", "capacity_method": "expos_units", "active_pip": 0, "licensed": 7, "com_floors": null, "occ_floors": null, "unknown_n": null, "id": "4128510400107630000-1", "pnu": "4128510400107630000", "floors": 5, "height": 32.1}}, {"type": "Feature", "geometry": {"type": "Polygon", "coordinates": [[[126.76964602, 37.65978906], [126.76976166, 37.65962901], [126.76980739, 37.65964739], [126.76991518, 37.65949642], [126.76990126, 37.65949017], [126.76993609, 37.65944141], [126.76961785, 37.65929788], [126.76957027, 37.65936446], [126.76954182, 37.65940431], [126.76956196, 37.65941336], [126.76937756, 37.65966934], [126.76946539, 37.65970762], [126.76945799, 37.65971842], [126.76955826, 37.6597642], [126.76956646, 37.65975287], [126.76964602, 37.65978906]]]}, "properties": {"name": "고일프라자", "status": "full", "capacity": 5, "active": 5, "industry": "이용·미용", "vacancy_rate": 0.0, "vacancy_rate_lo": 0.0, "vacancy_rate_hi": 0.0, "stores": 13, "source": "stores+ledger", "capacity_method": "floor_ouln", "active_pip": 0, "licensed": 2, "com_floors": [1, 2, 3, 4, 5], "occ_floors": [1, 2, 3, 4, 5], "unknown_n": 0, "id": "4128510400107690000-1", "pnu": "4128510400107690000", "floors": 5, "height": 26.5}}, {"type": "Feature", "geometry": {"type": "Polygon", "coordinates": [[[126.76997737, 37.66219363], [126.76998909, 37.66218158], [126.76998263, 37.66214436], [126.76997731, 37.66214111], [126.76975254, 37.66200326], [126.76967649, 37.66208006], [126.76976721, 37.66213448], [126.7697289, 37.66217161], [126.76975084, 37.66218598], [126.76971742, 37.66221835], [126.7696957, 37.66220506], [126.76964182, 37.66225866], [126.76952396, 37.66218355], [126.76944438, 37.6622625], [126.76970613, 37.66242303], [126.76975692, 37.66241781], [126.76997737, 37.66219363]]]}, "properties": {"name": "일산프라자", "status": "partial", "capacity": 50, "active": 28, "industry": "한식", "vacancy_rate": 44.0, "vacancy_rate_lo": null, "vacancy_rate_hi": null, "stores": 28, "source": "stores+ledger", "capacity_method": "expos_units", "active_pip": 0, "licensed": 9, "com_floors": null, "occ_floors": null, "unknown_n": null, "id": "4128510400107760000-1", "pnu": "4128510400107760000", "floors": 7, "height": 28.67}}, {"type": "Feature", "geometry": {"type": "Polygon", "coordinates": [[[126.76638284, 37.65986005], [126.76625402, 37.65999233], [126.76607836, 37.66017272], [126.76617958, 37.66023788], [126.76651405, 37.66044505], [126.76656007, 37.66044119], [126.76684853, 37.6601484], [126.76677139, 37.66009968], [126.76659743, 37.65999239], [126.76648668, 37.65992415], [126.76638284, 37.65986005]]]}, "properties": {"name": "삼성메르헨하우스", "status": "full", "capacity": 4, "active": 4, "industry": "컴퓨터 수리", "vacancy_rate": 0.0, "vacancy_rate_lo": 0.0, "vacancy_rate_hi": 0.0, "stores": 8, "source": "stores+ledger", "capacity_method": "floor_ouln", "active_pip": 0, "licensed": 0, "com_floors": [1, 4, 8, 15], "occ_floors": [1, 4, 8, 15], "unknown_n": 0, "id": "4128510400107520000-1", "pnu": "4128510400107520000", "floors": 15, "height": 55.07}}, {"type": "Feature", "geometry": {"type": "Polygon", "coordinates": [[[126.76806955, 37.66314057], [126.76815869, 37.66305326], [126.76791968, 37.66290404], [126.76782523, 37.66291241], [126.76760612, 37.6631356], [126.76761292, 37.66317327], [126.76787739, 37.66333633], [126.76796449, 37.66324722], [126.76788327, 37.66319786], [126.76789783, 37.66318276], [126.7678674, 37.66316432], [126.76795892, 37.66307215], [126.76806955, 37.66314057]]]}, "properties": {"name": "풍성프라자", "status": "partial", "capacity": 52, "active": 29, "industry": "주점", "vacancy_rate": 44.2, "vacancy_rate_lo": null, "vacancy_rate_hi": null, "stores": 29, "source": "stores+ledger", "capacity_method": "expos_units", "active_pip": 0, "licensed": 6, "com_floors": null, "occ_floors": null, "unknown_n": null, "id": "4128510400107340002-1", "pnu": "4128510400107340002", "floors": 7, "height": 27.4}}, {"type": "Feature", "geometry": {"type": "Polygon", "coordinates": [[[126.76612471, 37.66220913], [126.76619442, 37.66213737], [126.76616184, 37.66211667], [126.76587135, 37.66194012], [126.76596982, 37.66183941], [126.76629344, 37.66203936], [126.7663619, 37.66196616], [126.76633317, 37.66194826], [126.76634272, 37.66193891], [126.76627633, 37.66189588], [126.76622023, 37.66185955], [126.76590474, 37.66166873], [126.76584864, 37.66163285], [126.76577603, 37.66158737], [126.76576478, 37.66159726], [126.76573865, 37.6615809], [126.76566918, 37.66165095], [126.76570221, 37.6616721], [126.76560395, 37.66177317], [126.76557002, 37.66175166], [126.76549987, 37.66182179], [126.76552974, 37.66183852], [126.7655186, 37.66184976], [126.76559302, 37.66189632], [126.76564495, 37.66192751], [126.76596166, 37.66212383], [126.76608608, 37.66220202], [126.7660962, 37.66219159], [126.76612471, 37.66220913]]]}, "properties": {"name": "한라밀라트", "status": "full", "capacity": 13, "active": 13, "industry": "애완동물·용품 소매", "vacancy_rate": 0.0, "vacancy_rate_lo": null, "vacancy_rate_hi": null, "stores": 13, "source": "stores+ledger", "capacity_method": "expos_units", "active_pip": 0, "licensed": 0, "com_floors": null, "occ_floors": null, "unknown_n": null, "id": "4128510400107420001-1", "pnu": "4128510400107420001", "floors": 10, "height": 43.6}}, {"type": "Feature", "geometry": {"type": "Polygon", "coordinates": [[[126.77047381, 37.66101928], [126.77022924, 37.66087536], [126.7700456, 37.66106925], [126.77011008, 37.66110975], [126.77008403, 37.66113816], [126.77008222, 37.66113852], [126.77007122, 37.66114066], [126.77005794, 37.66114577], [126.77004387, 37.66115295], [126.7700274, 37.66116481], [126.77001818, 37.66117507], [126.77001385, 37.66118389], [126.77001052, 37.66119388], [126.77000787, 37.66120964], [126.7700085, 37.66122379], [126.7700113, 37.66123605], [126.77001693, 37.66124687], [126.77002438, 37.66125653], [126.77003522, 37.6612688], [126.77004959, 37.66127739], [126.77006216, 37.66128192], [126.77007337, 37.661285], [126.77008913, 37.6612862], [126.77010035, 37.66128614], [126.77011258, 37.66128499], [126.77012348, 37.66128366], [126.77013107, 37.66128241], [126.77014889, 37.66127614], [126.77037727, 37.66141624], [126.7704688, 37.66131965], [126.77030388, 37.66121716], [126.77037256, 37.66114333], [126.77036136, 37.66113628], [126.77047381, 37.66101928]]]}, "properties": {"name": "장항동 774", "status": "empty", "capacity": 4, "active": 0, "industry": "", "vacancy_rate": 100.0, "source": "polygon_only", "capacity_method": "floor_approx", "active_pip": 0, "licensed": 0, "id": "4128510400107740000-1", "pnu": "4128510400107740000", "floors": 4, "height": 21.87}}, {"type": "Feature", "geometry": {"type": "Polygon", "coordinates": [[[126.76997737, 37.66321265], [126.76998067, 37.66320914], [126.76999045, 37.66319925], [126.76997732, 37.6631913], [126.76955198, 37.66293458], [126.76943146, 37.6630584], [126.76959514, 37.66316045], [126.76966458, 37.66320824], [126.76949687, 37.66337865], [126.76931452, 37.66326549], [126.76921674, 37.66336458], [126.76948733, 37.66353054], [126.76948278, 37.66353522], [126.76959635, 37.66360581], [126.76997737, 37.66321265]]]}, "properties": {"name": "장항동 779", "status": "empty", "capacity": 2, "active": 0, "industry": "", "vacancy_rate": 100.0, "source": "polygon_only", "capacity_method": "floor_approx", "active_pip": 0, "licensed": 0, "id": "4128510400107790000-1", "pnu": "4128510400107790000", "floors": 2, "height": 18.3}}, {"type": "Feature", "geometry": {"type": "Polygon", "coordinates": [[[126.77048359, 37.66068431], [126.77020402, 37.66052807], [126.77013169, 37.66060992], [126.77012354, 37.6606054], [126.77008044, 37.66065415], [126.77038432, 37.66082467], [126.77044528, 37.6607582], [126.77042435, 37.66074609], [126.77048359, 37.66068431]]]}, "properties": {"name": "장항동 773", "status": "empty", "capacity": 3, "active": 0, "industry": "", "vacancy_rate": 100.0, "source": "polygon_only", "capacity_method": "floor_approx", "active_pip": 0, "licensed": 0, "id": "4128510400107730000-1", "pnu": "4128510400107730000", "floors": 3, "height": 12.8}}, {"type": "Feature", "geometry": {"type": "Polygon", "coordinates": [[[126.77059624, 37.65999248], [126.77048659, 37.66015552], [126.77050126, 37.66021259], [126.77055989, 37.66023541], [126.77056456, 37.66022903], [126.77058211, 37.66023519], [126.770578, 37.66024248], [126.77058739, 37.66024754], [126.77060523, 37.66026929], [126.7706209, 37.66026121], [126.7706261, 37.66026311], [126.7706436, 37.66028576], [126.77066062, 37.66027805], [126.77066617, 37.66028004], [126.77068299, 37.66030215], [126.77069865, 37.66029461], [126.77070646, 37.66029769], [126.77072204, 37.66031907], [126.77073702, 37.66031144], [126.77074483, 37.66031344], [126.77076154, 37.66033591], [126.77077777, 37.66032774], [126.77078343, 37.66032982], [126.77080024, 37.66035247], [126.77081523, 37.66034439], [126.77082304, 37.66034684], [126.77083986, 37.66036976], [126.77085484, 37.66036105], [126.77086153, 37.66036268], [126.7708788, 37.66038398], [126.77089617, 37.66037725], [126.77093329, 37.6603939], [126.77098224, 37.66032472], [126.7709716, 37.66031992], [126.77098082, 37.66030696], [126.7709884, 37.66031013], [126.77103383, 37.66024427], [126.77102307, 37.66023956], [126.77100739, 37.66021899], [126.77099365, 37.66022644], [126.77098459, 37.660223], [126.77096993, 37.66020135], [126.77095426, 37.66020898], [126.77094623, 37.66020599], [126.77093076, 37.66018532], [126.77091544, 37.66019196], [126.77090786, 37.66018933], [126.77089138, 37.6601666], [126.77087515, 37.66017476], [126.77086927, 37.66017223], [126.77085188, 37.66015147], [126.7708378, 37.66015892], [126.77083044, 37.66015675], [126.77081385, 37.66013446], [126.77079852, 37.66014308], [126.77079105, 37.66014081], [126.77076746, 37.66011103], [126.77078659, 37.66008152], [126.77079248, 37.66008315], [126.77085362, 37.65999246], [126.77102735, 37.65973502], [126.771066, 37.65973456], [126.77106872, 37.65973619], [126.7710706, 37.65975115], [126.77110448, 37.65975031], [126.77111003, 37.65975222], [126.77111032, 37.65976807], [126.77114083, 37.65976624], [126.77114818, 37.65976869], [126.77114835, 37.65978455], [126.77118248, 37.65978272], [126.77118814, 37.65978607], [126.77118821, 37.65980048], [126.77122119, 37.65979937], [126.77122662, 37.65980182], [126.7712268, 37.65981668], [126.77126069, 37.65981639], [126.77130732, 37.65983522], [126.77135172, 37.65976981], [126.77134176, 37.65976555], [126.77135098, 37.65975188], [126.77135868, 37.65975522], [126.77141571, 37.65967254], [126.7710413, 37.65951521], [126.77099105, 37.65949412], [126.77091572, 37.65951703], [126.77059624, 37.65999248]]]}, "properties": {"name": "우림로데오스위트", "status": "full", "capacity": 23, "active": 23, "industry": "기타 간이", "vacancy_rate": 0.0, "vacancy_rate_lo": null, "vacancy_rate_hi": null, "stores": 23, "source": "stores+ledger", "capacity_method": "expos_units", "active_pip": 0, "licensed": 0, "com_floors": null, "occ_floors": null, "unknown_n": null, "id": "4128510400107710001-1", "pnu": "4128510400107710001", "floors": 15, "height": 65.25}}, {"type": "Feature", "geometry": {"type": "Polygon", "coordinates": [[[126.76845266, 37.66290292], [126.76897771, 37.66320357], [126.76905647, 37.66318067], [126.76921862, 37.66297686], [126.7686439, 37.66267283], [126.76845266, 37.66290292]]]}, "properties": {"name": "일산우림보보카운티1차", "status": "full", "capacity": 2, "active": 2, "industry": "주점", "vacancy_rate": 0.0, "vacancy_rate_lo": 0.0, "vacancy_rate_hi": 0.0, "stores": 9, "source": "stores+ledger", "capacity_method": "floor_ouln", "active_pip": 0, "licensed": 1, "com_floors": [1, 2], "occ_floors": [1, 2], "unknown_n": 0, "id": "4128510400107780000-1", "pnu": "4128510400107780000", "floors": 10, "height": 34.9}}, {"type": "Feature", "geometry": {"type": "Polygon", "coordinates": [[[126.77015462, 37.66201631], [126.77037371, 37.66179285], [126.77036391, 37.66173751], [126.77021527, 37.66164666], [126.77014512, 37.66171914], [126.770207, 37.66175693], [126.76999554, 37.66196897], [126.77008445, 37.66202329], [126.77015462, 37.66201631]]]}, "properties": {"name": "범진빌딩", "status": "full", "capacity": 5, "active": 5, "industry": "한식", "vacancy_rate": 0.0, "vacancy_rate_lo": 0.0, "vacancy_rate_hi": 0.0, "stores": 10, "source": "stores+ledger", "capacity_method": "floor_ouln", "active_pip": 0, "licensed": 7, "com_floors": [1, 2, 3, 4, 5], "occ_floors": [1, 2, 3, 4, 5], "unknown_n": 0, "id": "4128510400107750000-1", "pnu": "4128510400107750000", "floors": 5, "height": 20.3}}, {"type": "Feature", "geometry": {"type": "Polygon", "coordinates": [[[126.76476898, 37.66258011], [126.7650023, 37.66270907], [126.7650138, 37.66269684], [126.76502861, 37.66270561], [126.76502701, 37.66270741], [126.76504059, 37.66271546], [126.76504242, 37.66271294], [126.76505191, 37.66271909], [126.76504986, 37.66272106], [126.76506276, 37.66272947], [126.76506469, 37.66272767], [126.76507815, 37.66273635], [126.76506701, 37.66274714], [126.76520511, 37.66283661], [126.76541809, 37.6629675], [126.76543117, 37.66295546], [126.76544429, 37.6629644], [126.76544316, 37.66296539], [126.76545447, 37.66297307], [126.76545616, 37.66297091], [126.76546906, 37.66297752], [126.76546644, 37.66298021], [126.76547798, 37.66298736], [126.76548082, 37.66298457], [126.76549609, 37.66299406], [126.76548313, 37.6630071], [126.76562509, 37.66309604], [126.76563271, 37.66308533], [126.76568735, 37.66311887], [126.7657217, 37.66311641], [126.76577799, 37.66306102], [126.76576826, 37.66305497], [126.76581886, 37.66300308], [126.76582949, 37.66300959], [126.7658801, 37.6629578], [126.76587476, 37.66292598], [126.76567805, 37.66280585], [126.76567145, 37.66281259], [126.76560777, 37.66277336], [126.76561528, 37.66276572], [126.76526203, 37.66254841], [126.76525373, 37.66255677], [126.76518779, 37.66251556], [126.76519563, 37.66250782], [126.7650701, 37.66242775], [126.76500392, 37.66238788], [126.76497739, 37.66239107], [126.76476898, 37.66258011]]]}, "properties": {"name": "코오롱레이크폴리스III", "status": "full", "capacity": 2, "active": 2, "industry": "교육 지원", "vacancy_rate": 0.0, "vacancy_rate_lo": null, "vacancy_rate_hi": null, "stores": 2, "source": "stores+ledger", "capacity_method": "expos_units", "active_pip": 0, "licensed": 0, "com_floors": null, "occ_floors": null, "unknown_n": null, "id": "4128510400107440000-1", "pnu": "4128510400107440000", "floors": 10, "height": 36.7}}, {"type": "Feature", "geometry": {"type": "Polygon", "coordinates": [[[126.7694009, 37.66181012], [126.76932325, 37.66188979], [126.76934217, 37.6619292], [126.76932095, 37.66193619], [126.76930323, 37.6619494], [126.76928582, 37.66197108], [126.76927747, 37.66199521], [126.7692257, 37.66199033], [126.76914326, 37.66207477], [126.76943228, 37.66225203], [126.76968958, 37.66198782], [126.7694009, 37.66181012]]]}, "properties": {"name": "메탈릭타워", "status": "high", "capacity": 54, "active": 26, "industry": "한식", "vacancy_rate": 51.9, "vacancy_rate_lo": null, "vacancy_rate_hi": null, "stores": 26, "source": "stores+ledger", "capacity_method": "expos_units", "active_pip": 0, "licensed": 9, "com_floors": null, "occ_floors": null, "unknown_n": null, "id": "4128510400107760001-1", "pnu": "4128510400107760001", "floors": 9, "height": 35.1}}, {"type": "Feature", "geometry": {"type": "Polygon", "coordinates": [[[126.7647106, 37.66148647], [126.76509735, 37.66170449], [126.76518648, 37.6617581], [126.76542707, 37.66151469], [126.7654403, 37.66152354], [126.7655323, 37.66142849], [126.76522463, 37.66123695], [126.76521599, 37.66124577], [126.76516701, 37.66121639], [126.76515404, 37.66123006], [126.76511853, 37.66120773], [126.76509884, 37.66119643], [126.7650685, 37.66122403], [126.76507064, 37.66122547], [126.76503809, 37.66124918], [126.76498923, 37.66123041], [126.764903, 37.6612769], [126.7647106, 37.66148647]]]}, "properties": {"name": "대우메종리브르", "status": "full", "capacity": 17, "active": 17, "industry": "한식", "vacancy_rate": 0.0, "vacancy_rate_lo": null, "vacancy_rate_hi": null, "stores": 17, "source": "stores+ledger", "capacity_method": "expos_units", "active_pip": 0, "licensed": 6, "com_floors": null, "occ_floors": null, "unknown_n": null, "id": "4128510400107500001-1", "pnu": "4128510400107500001", "floors": 15, "height": 62.95}}, {"type": "Feature", "geometry": {"type": "Polygon", "coordinates": [[[126.76669942, 37.65999232], [126.76688028, 37.6601053], [126.76699193, 37.65999236], [126.76716804, 37.65981405], [126.76716162, 37.65976412], [126.76713379, 37.65974803], [126.76712913, 37.65975307], [126.76692848, 37.65962716], [126.76693257, 37.65962303], [126.76678079, 37.65952631], [126.76677183, 37.65952729], [126.76677217, 37.65952909], [126.76671526, 37.65953429], [126.76670449, 37.65953454], [126.76653247, 37.65970872], [126.76653915, 37.65971287], [126.76643523, 37.65981808], [126.76642867, 37.65981401], [126.76642299, 37.65981977], [126.76655091, 37.65989968], [126.76669942, 37.65999232]]]}, "properties": {"name": "호수그린오피스텔", "status": "full", "capacity": 11, "active": 11, "industry": "유원지·오락", "vacancy_rate": 0.0, "vacancy_rate_lo": null, "vacancy_rate_hi": null, "stores": 11, "source": "stores+ledger", "capacity_method": "expos_units", "active_pip": 0, "licensed": 3, "com_floors": null, "occ_floors": null, "unknown_n": null, "id": "4128510400107520001-1", "pnu": "4128510400107520001", "floors": 15, "height": 58.65}}, {"type": "Feature", "geometry": {"type": "Polygon", "coordinates": [[[126.7682047, 37.66351943], [126.76847788, 37.66368882], [126.76851631, 37.66368484], [126.76873622, 37.66346138], [126.76872713, 37.66339902], [126.76857147, 37.66330312], [126.76855066, 37.66332524], [126.76845406, 37.66326495], [126.76838016, 37.66333968], [126.76839656, 37.66334989], [126.76836028, 37.66338658], [126.76835292, 37.66338197], [126.76832837, 37.66340688], [126.76833594, 37.66341221], [126.76829933, 37.66344944], [126.76828248, 37.66343895], [126.7682047, 37.66351943]]]}, "properties": {"name": "삼라마이다스", "status": "full", "capacity": 15, "active": 14, "industry": "의약·화장품 소매", "vacancy_rate": 6.7, "vacancy_rate_lo": null, "vacancy_rate_hi": null, "stores": 14, "source": "stores+ledger", "capacity_method": "expos_units", "active_pip": 0, "licensed": 4, "com_floors": null, "occ_floors": null, "unknown_n": null, "id": "4128510400107340000-1", "pnu": "4128510400107340000", "floors": 10, "height": 34.65}}, {"type": "Feature", "geometry": {"type": "Polygon", "coordinates": [[[126.76775426, 37.65885603], [126.76778041, 37.65886762], [126.76777153, 37.65888022], [126.76784068, 37.6589109], [126.76785183, 37.65889488], [126.76786327, 37.6588986], [126.76786145, 37.65890094], [126.76796218, 37.65894204], [126.76823911, 37.65852553], [126.76822617, 37.65849486], [126.76780287, 37.65832095], [126.76779695, 37.65833013], [126.76778495, 37.65832659], [126.76778064, 37.65832649], [126.76772665, 37.65834278], [126.76772185, 37.65835268], [126.76770623, 37.65834662], [126.76744242, 37.65873693], [126.76750512, 37.65876373], [126.76751206, 37.65875347], [126.76756265, 37.6587751], [126.76755856, 37.65877906], [126.76762002, 37.6588036], [126.7676232, 37.65880135], [126.76765964, 37.65881701], [126.76785585, 37.65852116], [126.76786954, 37.65852686], [126.76786328, 37.65853649], [126.76792304, 37.65856148], [126.76792976, 37.6585514], [126.76794787, 37.65855891], [126.76775426, 37.65885603]]]}, "properties": {"name": "중앙하이츠빌", "status": "full", "capacity": 19, "active": 19, "industry": "이용·미용", "vacancy_rate": 0.0, "vacancy_rate_lo": null, "vacancy_rate_hi": null, "stores": 19, "source": "stores+ledger", "capacity_method": "expos_units", "active_pip": 0, "licensed": 0, "com_floors": null, "occ_floors": null, "unknown_n": null, "id": "4128510400107540000-1", "pnu": "4128510400107540000", "floors": 15, "height": 53.35}}, {"type": "Feature", "geometry": {"type": "Polygon", "coordinates": [[[126.76778712, 37.65914838], [126.76768747, 37.65908764], [126.76769941, 37.65907388], [126.76768375, 37.65904312], [126.76766311, 37.65905011], [126.76764834, 37.65902278], [126.76762736, 37.65902859], [126.76761441, 37.65900163], [126.76759309, 37.65900725], [126.76757867, 37.65898011], [126.7675587, 37.65898601], [126.76754315, 37.65895841], [126.76752273, 37.65896414], [126.76750775, 37.65893708], [126.7674871, 37.6589419], [126.76738984, 37.65887972], [126.76738051, 37.65888944], [126.76737089, 37.65888554], [126.76735945, 37.65888444], [126.76735095, 37.65888505], [126.76734335, 37.6588872], [126.76733688, 37.65889061], [126.76733267, 37.65889529], [126.76732272, 37.65888914], [126.7669177, 37.65930981], [126.76692291, 37.65931307], [126.76691949, 37.65931693], [126.76691789, 37.65932378], [126.76691786, 37.6593308], [126.76691977, 37.65933838], [126.76692326, 37.65934415], [126.76693151, 37.65935318], [126.766924, 37.65936064], [126.76702354, 37.65942201], [126.76702145, 37.65943842], [126.76706053, 37.65944318], [126.76705799, 37.6594602], [126.7670956, 37.65946388], [126.76709339, 37.65948108], [126.76712953, 37.65948476], [126.76712743, 37.65950377], [126.76716516, 37.65950763], [126.76716284, 37.65952492], [126.76719943, 37.65952887], [126.76719745, 37.65954517], [126.76723766, 37.65955228], [126.76724369, 37.6595449], [126.76735126, 37.65961098], [126.76778712, 37.65914838]]]}, "properties": {"name": "청원레이크빌", "status": "full", "capacity": 20, "active": 20, "industry": "의약·화장품 소매", "vacancy_rate": 0.0, "vacancy_rate_lo": null, "vacancy_rate_hi": null, "stores": 20, "source": "stores+ledger", "capacity_method": "expos_units", "active_pip": 0, "licensed": 6, "com_floors": null, "occ_floors": null, "unknown_n": null, "id": "4128510400107530000-1", "pnu": "4128510400107530000", "floors": 15, "height": 64.75}}, {"type": "Feature", "geometry": {"type": "Polygon", "coordinates": [[[126.76997739, 37.66029742], [126.77002208, 37.66025264], [126.77004666, 37.66022269], [126.76997741, 37.66018642], [126.76983981, 37.66011434], [126.76982356, 37.66012963], [126.7697469, 37.6601802], [126.76967651, 37.66022115], [126.76959943, 37.66026154], [126.76958751, 37.66026782], [126.76957383, 37.66025942], [126.76954415, 37.66025305], [126.76951784, 37.66025904], [126.76950388, 37.66026496], [126.76949718, 37.66027161], [126.76948636, 37.66028781], [126.76948565, 37.66029591], [126.76948707, 37.66031475], [126.76950174, 37.66033424], [126.76951566, 37.66034174], [126.76943507, 37.66041709], [126.76939137, 37.66043835], [126.76940232, 37.66045252], [126.76935532, 37.66047531], [126.76936559, 37.66048876], [126.76932064, 37.66051065], [126.76933046, 37.66052572], [126.76928473, 37.66054446], [126.76929443, 37.66055925], [126.76925027, 37.66058043], [126.76926337, 37.66059676], [126.76917968, 37.66068435], [126.76918679, 37.66069662], [126.76919466, 37.66071718], [126.76920003, 37.66073818], [126.76920087, 37.66075854], [126.76920071, 37.66077368], [126.76925014, 37.66080405], [126.7692788, 37.66077455], [126.76935073, 37.66081938], [126.76938166, 37.660788], [126.76946344, 37.66083844], [126.76970892, 37.66058647], [126.76969908, 37.66058041], [126.76976309, 37.66051467], [126.76976852, 37.66051802], [126.76981237, 37.66048504], [126.76984523, 37.66044825], [126.76980326, 37.66042457], [126.76985504, 37.66039322], [126.76990705, 37.66035765], [126.76997546, 37.66029949], [126.76997739, 37.66029742]]]}, "properties": {"name": "라페스타아파트", "status": "partial", "capacity": 52, "active": 27, "industry": "섬유·의복·신발 소매", "vacancy_rate": 48.1, "vacancy_rate_lo": null, "vacancy_rate_hi": null, "stores": 27, "source": "stores+ledger", "capacity_method": "expos_units", "active_pip": 0, "licensed": 2, "com_floors": null, "occ_floors": null, "unknown_n": null, "id": "4128510400107660000-1", "pnu": "4128510400107660000", "floors": 4, "height": 28.0}}, {"type": "Feature", "geometry": {"type": "Polygon", "coordinates": [[[126.76701907, 37.66130443], [126.76722043, 37.66109815], [126.76706818, 37.66100595], [126.76708228, 37.6609912], [126.76676737, 37.66079803], [126.76675429, 37.66081151], [126.76660136, 37.66071778], [126.76640237, 37.66092407], [126.76701907, 37.66130443]]]}, "properties": {"name": "삼라마이다스빌", "status": "full", "capacity": 15, "active": 15, "industry": "종합 소매", "vacancy_rate": 0.0, "vacancy_rate_lo": null, "vacancy_rate_hi": null, "stores": 15, "source": "stores+ledger", "capacity_method": "expos_units", "active_pip": 0, "licensed": 5, "com_floors": null, "occ_floors": null, "unknown_n": null, "id": "4128510400107590001-1", "pnu": "4128510400107590001", "floors": 10, "height": 32.65}}, {"type": "Feature", "geometry": {"type": "Polygon", "coordinates": [[[126.76855334, 37.65861093], [126.7684481, 37.65863181], [126.7682084, 37.65899596], [126.7682348, 37.65907097], [126.76913382, 37.65951343], [126.76915077, 37.65949166], [126.76918541, 37.65950569], [126.76952404, 37.65899857], [126.76945726, 37.65897339], [126.76947172, 37.6589491], [126.76855334, 37.65861093]]]}, "properties": {"name": "홈플러스일산점", "status": "high", "capacity": 7, "active": 3, "industry": "의약·화장품 소매", "vacancy_rate": 57.1, "vacancy_rate_lo": 57.1, "vacancy_rate_hi": 57.1, "stores": 8, "source": "stores+ledger", "capacity_method": "floor_ouln", "active_pip": 0, "licensed": 0, "com_floors": [1, 2, 3, 4, 5, 6, 7], "occ_floors": [1, 2, 4], "unknown_n": 0, "id": "4128510400107550000-1", "pnu": "4128510400107550000", "floors": 7, "height": 30.75}}, {"type": "Feature", "geometry": {"type": "Polygon", "coordinates": [[[126.77001904, 37.65999243], [126.77001699, 37.6599954], [126.77006792, 37.66001821], [126.77007121, 37.66001497], [126.77014942, 37.66004981], [126.77014714, 37.66005296], [126.77017702, 37.66006554], [126.77018305, 37.66005654], [126.77019449, 37.66006125], [126.77021121, 37.66004065], [126.77020702, 37.66003947], [126.7702407, 37.65999512], [126.77024264, 37.65999242], [126.77028679, 37.65993322], [126.77028239, 37.65992988], [126.77028876, 37.65992124], [126.77029328, 37.65992342], [126.77031105, 37.65989669], [126.77027868, 37.65988311], [126.77027742, 37.65988509], [126.77018745, 37.65984663], [126.77019018, 37.65984258], [126.77013914, 37.65981932], [126.77013629, 37.65982319], [126.77004429, 37.65978129], [126.77004611, 37.65977877], [126.76998511, 37.65975099], [126.76997748, 37.6597616], [126.76985968, 37.65992544], [126.76993188, 37.6599564], [126.76993393, 37.65995343], [126.76997739, 37.65997298], [126.77001949, 37.65999189], [126.77001904, 37.65999243]]]}, "properties": {"name": "삼희포시즌프라자", "status": "high", "capacity": 23, "active": 9, "industry": "한식", "vacancy_rate": 60.9, "vacancy_rate_lo": null, "vacancy_rate_hi": null, "stores": 9, "source": "stores+ledger", "capacity_method": "expos_units", "active_pip": 0, "licensed": 3, "com_floors": null, "occ_floors": null, "unknown_n": null, "id": "4128510400107700000-1", "pnu": "4128510400107700000", "floors": 5, "height": 28.0}}, {"type": "Feature", "geometry": {"type": "Polygon", "coordinates": [[[126.7662594, 37.66015524], [126.76626187, 37.66016444], [126.7663208, 37.66019843], [126.76638004, 37.66013927], [126.76648692, 37.66020678], [126.76642371, 37.66026864], [126.76652959, 37.66033138], [126.76654161, 37.66033032], [126.76667885, 37.66018797], [126.76667706, 37.6601804], [126.76646076, 37.66005816], [126.76639561, 37.66001749], [126.7662594, 37.66015524]]]}, "properties": {"name": "삼성메르헨하우스", "status": "full", "capacity": 4, "active": 4, "industry": "컴퓨터 수리", "vacancy_rate": 0.0, "vacancy_rate_lo": 0.0, "vacancy_rate_hi": 0.0, "stores": 8, "source": "stores+ledger", "capacity_method": "floor_ouln", "active_pip": 0, "licensed": 0, "com_floors": [1, 4, 8, 15], "occ_floors": [1, 4, 8, 15], "unknown_n": 0, "id": "4128510400107520000-2", "pnu": "4128510400107520000", "floors": 0, "height": 0.0}}, {"type": "Feature", "geometry": {"type": "Polygon", "coordinates": [[[126.76938204, 37.66197334], [126.76948112, 37.66203642], [126.76944258, 37.66207482], [126.76934316, 37.66201164], [126.76930631, 37.66205229], [126.7694416, 37.66213491], [126.76955462, 37.66201746], [126.76942103, 37.66193467], [126.76938204, 37.66197334]]]}, "properties": {"name": "메탈릭타워", "status": "high", "capacity": 54, "active": 26, "industry": "한식", "vacancy_rate": 51.9, "vacancy_rate_lo": null, "vacancy_rate_hi": null, "stores": 26, "source": "stores+ledger", "capacity_method": "expos_units", "active_pip": 0, "licensed": 9, "com_floors": null, "occ_floors": null, "unknown_n": null, "id": "4128510400107760001-2", "pnu": "4128510400107760001", "floors": 0, "height": 0.0}}, {"type": "Feature", "geometry": {"type": "Polygon", "coordinates": [[[126.76912881, 37.65999248], [126.7691175, 37.65998606], [126.76911147, 37.65999244], [126.76874612, 37.66038022], [126.76876513, 37.66039134], [126.76869826, 37.66046356], [126.76873808, 37.66048688], [126.76873228, 37.66049299], [126.76875343, 37.66050583], [126.76875991, 37.66050071], [126.76890098, 37.66058388], [126.76891901, 37.66058031], [126.76895574, 37.66057623], [126.76899733, 37.66057776], [126.76918813, 37.66037451], [126.76918199, 37.66034594], [126.76916389, 37.66033527], [126.76919561, 37.66030128], [126.7692166, 37.66029772], [126.76923214, 37.66029009], [126.76924806, 37.66027751], [126.7692567, 37.66026716], [126.76926207, 37.6602524], [126.76926664, 37.66024097], [126.76928072, 37.66023252], [126.76932244, 37.66019197], [126.76935491, 37.66020997], [126.7693772, 37.66018451], [126.7693703, 37.66018071], [126.76939146, 37.66015661], [126.7693918, 37.66015625], [126.76941079, 37.66013457], [126.76939076, 37.66012399], [126.76942569, 37.66008235], [126.76950076, 37.6599924], [126.76952943, 37.65995822], [126.76924645, 37.65981179], [126.76922801, 37.65983644], [126.76922269, 37.65983436], [126.76917964, 37.65990275], [126.76916709, 37.65992921], [126.76914163, 37.65998917], [126.76913981, 37.65999241], [126.7691373, 37.65999718], [126.76912881, 37.65999248]]]}, "properties": {"name": "라페스타B", "status": "partial", "capacity": 55, "active": 29, "industry": "이용·미용", "vacancy_rate": 47.3, "vacancy_rate_lo": null, "vacancy_rate_hi": null, "stores": 29, "source": "stores+ledger", "capacity_method": "expos_units", "active_pip": 0, "licensed": 6, "com_floors": null, "occ_floors": null, "unknown_n": null, "id": "4128510400107680000-1", "pnu": "4128510400107680000", "floors": 4, "height": 26.0}}, {"type": "Feature", "geometry": {"type": "Polygon", "coordinates": [[[126.76754539, 37.65972174], [126.76755168, 37.65977536], [126.76780154, 37.65993091], [126.76785623, 37.65987543], [126.76789457, 37.65989929], [126.76795369, 37.65983922], [126.76800725, 37.65978482], [126.76806319, 37.65972799], [126.76811049, 37.6596779], [126.76778949, 37.65947553], [126.76754539, 37.65972174]]]}, "properties": {"name": "위너스21II", "status": "partial", "capacity": 44, "active": 33, "industry": "한식", "vacancy_rate": 25.0, "vacancy_rate_lo": null, "vacancy_rate_hi": null, "stores": 33, "source": "stores+ledger", "capacity_method": "expos_units", "active_pip": 0, "licensed": 8, "com_floors": null, "occ_floors": null, "unknown_n": null, "id": "4128510400107560002-1", "pnu": "4128510400107560002", "floors": 8, "height": 31.05}}, {"type": "Feature", "geometry": {"type": "Polygon", "coordinates": [[[126.76913901, 37.66162363], [126.76908391, 37.6616283], [126.76885537, 37.66186336], [126.76885843, 37.66189905], [126.76912788, 37.66206402], [126.76924511, 37.66194307], [126.76912091, 37.66186696], [126.76916752, 37.66181885], [126.76929399, 37.66189478], [126.76940008, 37.6617839], [126.76913901, 37.66162363]]]}, "properties": {"name": "우림보보카운티Ⅱ", "status": "full", "capacity": 9, "active": 9, "industry": "종합 소매", "vacancy_rate": 0.0, "vacancy_rate_lo": null, "vacancy_rate_hi": null, "stores": 9, "source": "stores+ledger", "capacity_method": "expos_units", "active_pip": 0, "licensed": 4, "com_floors": null, "occ_floors": null, "unknown_n": null, "id": "4128510400107760002-1", "pnu": "4128510400107760002", "floors": 10, "height": 37.15}}, {"type": "Feature", "geometry": {"type": "Polygon", "coordinates": [[[126.76713413, 37.66279589], [126.76707886, 37.66285506], [126.76709945, 37.66286789], [126.76707398, 37.66289496], [126.76707135, 37.6629009], [126.76707224, 37.66290532], [126.7670745, 37.66290713], [126.76708615, 37.66291454], [126.76707956, 37.66292182], [126.76725014, 37.6630255], [126.76729924, 37.66305533], [126.76730785, 37.66305535], [126.76731556, 37.66305311], [126.76732103, 37.66304574], [126.76732104, 37.66304258], [126.76734162, 37.66302163], [126.76733472, 37.66301729], [126.76735336, 37.66299931], [126.76735234, 37.66299868], [126.76739543, 37.66295606], [126.76713413, 37.66279589]]]}, "properties": {"name": "휠상가", "status": "high", "capacity": 5, "active": 2, "industry": "섬유·의복·신발 소매", "vacancy_rate": 60.0, "vacancy_rate_lo": null, "vacancy_rate_hi": null, "stores": 2, "source": "stores+ledger", "capacity_method": "floor_approx", "active_pip": 0, "licensed": 0, "com_floors": null, "occ_floors": null, "unknown_n": null, "id": "4128510400107350002-1", "pnu": "4128510400107350002", "floors": 5, "height": 19.1}}, {"type": "Feature", "geometry": {"type": "Polygon", "coordinates": [[[126.76648409, 37.66309235], [126.76652441, 37.66310172], [126.76669454, 37.6629242], [126.76674478, 37.66294881], [126.76701732, 37.66267915], [126.76699718, 37.66266767], [126.76677522, 37.66289328], [126.76672986, 37.66286634], [126.76652109, 37.6630781], [126.76650786, 37.66306952], [126.76648409, 37.66309235]]]}, "properties": {"name": "로데오존", "status": "partial", "capacity": 71, "active": 49, "industry": "유원지·오락", "vacancy_rate": 31.0, "vacancy_rate_lo": null, "vacancy_rate_hi": null, "stores": 49, "source": "stores+ledger", "capacity_method": "expos_units", "active_pip": 0, "licensed": 28, "com_floors": null, "occ_floors": null, "unknown_n": null, "id": "4128510400107410000-2", "pnu": "4128510400107410000", "floors": 0, "height": 0.0}}, {"type": "Feature", "geometry": {"type": "Polygon", "coordinates": [[[126.76701309, 37.66290169], [126.76688289, 37.66303514], [126.76691457, 37.66305313], [126.7670459, 37.66292059], [126.76701309, 37.66290169]]]}, "properties": {"name": "로데오휠", "status": "high", "capacity": 22, "active": 9, "industry": "주점", "vacancy_rate": 59.1, "vacancy_rate_lo": null, "vacancy_rate_hi": null, "stores": 9, "source": "stores+ledger", "capacity_method": "expos_units", "active_pip": 0, "licensed": 4, "com_floors": null, "occ_floors": null, "unknown_n": null, "id": "4128510400107350001-1", "pnu": "4128510400107350001", "floors": 0, "height": 0.0}}, {"type": "Feature", "geometry": {"type": "Polygon", "coordinates": [[[126.76691113, 37.66306474], [126.76687787, 37.6630463], [126.76669697, 37.66322631], [126.76673226, 37.66324629], [126.76691113, 37.66306474]]]}, "properties": {"name": "엔담프라자", "status": "full", "capacity": 5, "active": 5, "industry": "주점", "vacancy_rate": 0.0, "vacancy_rate_lo": 0.0, "vacancy_rate_hi": 0.0, "stores": 11, "source": "stores+ledger", "capacity_method": "floor_ouln", "active_pip": 0, "licensed": 8, "com_floors": [1, 2, 3, 4, 5], "occ_floors": [1, 2, 3, 4, 5], "unknown_n": 0, "id": "4128510400107350000-1", "pnu": "4128510400107350000", "floors": 0, "height": 0.0}}, {"type": "Feature", "geometry": {"type": "Polygon", "coordinates": [[[126.76735622, 37.66260037], [126.76733088, 37.66258653], [126.7671726, 37.66274821], [126.76719058, 37.66275933], [126.76731645, 37.66263011], [126.7673278, 37.66262446], [126.76733472, 37.66262204], [126.76735622, 37.66260037]]]}, "properties": {"name": "텐폴드프라자", "status": "partial", "capacity": 22, "active": 14, "industry": "비알코올 ", "vacancy_rate": 36.4, "vacancy_rate_lo": null, "vacancy_rate_hi": null, "stores": 14, "source": "stores+ledger", "capacity_method": "expos_units", "active_pip": 0, "licensed": 5, "com_floors": null, "occ_floors": null, "unknown_n": null, "id": "4128510400107350003-2", "pnu": "4128510400107350003", "floors": 0, "height": 0.0}}, {"type": "Feature", "geometry": {"type": "Polygon", "coordinates": [[[126.76704062, 37.66265784], [126.76719879, 37.66249391], [126.7671479, 37.66246155], [126.76713568, 37.6625209], [126.76701133, 37.66263859], [126.76704062, 37.66265784]]]}, "properties": {"name": "이레빌딩", "status": "full", "capacity": 19, "active": 19, "industry": "주점", "vacancy_rate": 0.0, "vacancy_rate_lo": null, "vacancy_rate_hi": null, "stores": 19, "source": "stores+ledger", "capacity_method": "expos_units", "active_pip": 0, "licensed": 9, "com_floors": null, "occ_floors": null, "unknown_n": null, "id": "4128510400107410003-1", "pnu": "4128510400107410003", "floors": 0, "height": 0.0}}, {"type": "Feature", "geometry": {"type": "Polygon", "coordinates": [[[126.77011499, 37.66386001], [126.77012623, 37.66392859], [126.77064342, 37.66424595], [126.77072958, 37.66423765], [126.7714444, 37.66351034], [126.77082947, 37.66312837], [126.77060629, 37.66335553], [126.77011499, 37.66386001]]]}, "properties": {"name": "정발산동 785", "status": "high", "capacity": 15, "active": 3, "industry": "", "vacancy_rate": 80.0, "source": "pip_only", "capacity_method": "floor_approx", "active_pip": 0, "licensed": 3, "id": "4128510300107850000-1", "pnu": "4128510300107850000", "floors": 15, "height": 60.495}}, {"type": "Feature", "geometry": {"type": "Polygon", "coordinates": [[[126.76614881, 37.66222044], [126.76618342, 37.6622424], [126.76617239, 37.66225355], [126.76620078, 37.66227118], [126.7662717, 37.6623151], [126.76639783, 37.66239329], [126.76640556, 37.66238529], [126.76643565, 37.66240364], [126.76650512, 37.66233188], [126.76651881, 37.66233911], [126.76661513, 37.66223885], [126.76660179, 37.66223062], [126.76667466, 37.66215725], [126.76664695, 37.66214016], [126.76665435, 37.66213054], [126.76658557, 37.66208796], [126.76652789, 37.66205028], [126.76643163, 37.66199342], [126.76642094, 37.66200412], [126.76638361, 37.66198062], [126.76631289, 37.66205165], [126.76635418, 37.66207759], [126.76647203, 37.66215459], [126.76637755, 37.66224991], [126.76621761, 37.66214859], [126.76614881, 37.66222044]]]}, "properties": {"name": "한라밀라트", "status": "full", "capacity": 2, "active": 2, "industry": "한식", "vacancy_rate": 0.0, "vacancy_rate_lo": 0.0, "vacancy_rate_hi": 50.0, "stores": 6, "source": "stores+ledger", "capacity_method": "floor_ouln", "active_pip": 0, "licensed": 0, "com_floors": [1, 7], "occ_floors": [7], "unknown_n": 1, "id": "4128510400107420000-1", "pnu": "4128510400107420000", "floors": 10, "height": 43.6}}, {"type": "Feature", "geometry": {"type": "Polygon", "coordinates": [[[126.76730695, 37.66308409], [126.76704647, 37.66292095], [126.76691491, 37.6630534], [126.76717631, 37.66321708], [126.76730695, 37.66308409]]]}, "properties": {"name": "로데오휠", "status": "high", "capacity": 22, "active": 9, "industry": "주점", "vacancy_rate": 59.1, "vacancy_rate_lo": null, "vacancy_rate_hi": null, "stores": 9, "source": "stores+ledger", "capacity_method": "expos_units", "active_pip": 0, "licensed": 4, "com_floors": null, "occ_floors": null, "unknown_n": null, "id": "4128510400107350001-2", "pnu": "4128510400107350001", "floors": 5, "height": 21.35}}, {"type": "Feature", "geometry": {"type": "Polygon", "coordinates": [[[126.76670021, 37.66246201], [126.76700746, 37.6626412], [126.76713433, 37.66252036], [126.76715114, 37.66243868], [126.76692458, 37.6622974], [126.76684398, 37.66230157], [126.76670021, 37.66246201]]]}, "properties": {"name": "이레빌딩", "status": "full", "capacity": 19, "active": 19, "industry": "주점", "vacancy_rate": 0.0, "vacancy_rate_lo": null, "vacancy_rate_hi": null, "stores": 19, "source": "stores+ledger", "capacity_method": "expos_units", "active_pip": 0, "licensed": 9, "com_floors": null, "occ_floors": null, "unknown_n": null, "id": "4128510400107410003-2", "pnu": "4128510400107410003", "floors": 5, "height": 20.25}}, {"type": "Feature", "geometry": {"type": "Polygon", "coordinates": [[[126.76575804, 37.66340714], [126.76602171, 37.66357165], [126.76629495, 37.6632983], [126.7663583, 37.66323013], [126.76635621, 37.66320869], [126.76613157, 37.66307057], [126.76608882, 37.66307355], [126.76586073, 37.66330157], [126.76575804, 37.66340714]]]}, "properties": {"name": "양우로데오랜드", "status": "full", "capacity": 42, "active": 39, "industry": "주점", "vacancy_rate": 7.1, "vacancy_rate_lo": null, "vacancy_rate_hi": null, "stores": 39, "source": "stores+ledger", "capacity_method": "expos_units", "active_pip": 0, "licensed": 21, "com_floors": null, "occ_floors": null, "unknown_n": null, "id": "4128510400107400005-1", "pnu": "4128510400107400005", "floors": 5, "height": 22.35}}, {"type": "Feature", "geometry": {"type": "Polygon", "coordinates": [[[126.76697366, 37.66339435], [126.76700846, 37.66339136], [126.76717039, 37.66322608], [126.76691193, 37.66306529], [126.7667334, 37.66324693], [126.76697366, 37.66339435]]]}, "properties": {"name": "엔담프라자", "status": "full", "capacity": 5, "active": 5, "industry": "주점", "vacancy_rate": 0.0, "vacancy_rate_lo": 0.0, "vacancy_rate_hi": 0.0, "stores": 11, "source": "stores+ledger", "capacity_method": "floor_ouln", "active_pip": 0, "licensed": 8, "com_floors": [1, 2, 3, 4, 5], "occ_floors": [1, 2, 3, 4, 5], "unknown_n": 0, "id": "4128510400107350000-2", "pnu": "4128510400107350000", "floors": 5, "height": 22.55}}]}