{"type": "FeatureCollection", "district": "westerndom", "features": [{"type": "Feature", "geometry": {"type": "Polygon", "coordinates": [[[126.77066167, 37.65710045], [126.77064524, 37.65706312], [126.77024361, 37.65691574], [126.77011258, 37.65713982], [126.77036263, 37.65723231], [126.77034862, 37.65725616], [126.77053699, 37.65732581], [126.77066167, 37.65710045]]]}, "properties": {"name": "로얄프라자", "status": "full", "capacity": 25, "active": 23, "industry": "한식", "vacancy_rate": 8.0, "vacancy_rate_lo": null, "vacancy_rate_hi": null, "stores": 23, "source": "stores+ledger", "capacity_method": "expos_units", "active_pip": 0, "licensed": 0, "com_floors": null, "occ_floors": null, "unknown_n": null, "id": "4128510400108640001-1", "pnu": "4128510400108640001", "floors": 9, "height": 34.3}}, {"type": "Feature", "geometry": {"type": "Polygon", "coordinates": [[[126.7740723, 37.65664851], [126.77417859, 37.65668863], [126.77418405, 37.65668026], [126.77419707, 37.65668506], [126.77419217, 37.65669352], [126.77444541, 37.65678493], [126.77444985, 37.65677728], [126.7744623, 37.6567818], [126.77445695, 37.65679107], [126.77456256, 37.65682984], [126.77457555, 37.65680752], [126.77459819, 37.65681576], [126.77464387, 37.6567372], [126.77487104, 37.65634598], [126.77484806, 37.65633747], [126.77486048, 37.65631641], [126.77475543, 37.65627718], [126.77475167, 37.65628366], [126.77473752, 37.65627841], [126.77474459, 37.65626644], [126.77449442, 37.65617298], [126.7744861, 37.65618855], [126.77447263, 37.65618276], [126.77447651, 37.65617574], [126.77436976, 37.65613652], [126.77431245, 37.65623489], [126.77412892, 37.6565505], [126.7740723, 37.65664851]]]}, "properties": {"name": "현대타운", "status": "full", "capacity": 9, "active": 9, "industry": "욕탕·신체관리", "vacancy_rate": 0.0, "vacancy_rate_lo": 0.0, "vacancy_rate_hi": 0.0, "stores": 18, "source": "stores+ledger", "capacity_method": "floor_ouln", "active_pip": 0, "licensed": 0, "com_floors": [1, 2, 3, 4, 5, 6, 8, 9, 13], "occ_floors": [1, 2, 3, 4, 5, 6, 8, 9, 13], "unknown_n": 0, "id": "4128510400108480001-1", "pnu": "4128510400108480001", "floors": 15, "height": 58.25}}, {"type": "Feature", "geometry": {"type": "Polygon", "coordinates": [[[126.7700965, 37.65786937], [126.77009749, 37.65786931], [126.77009844, 37.65786911], [126.77009934, 37.65786877], [126.77010016, 37.65786832], [126.77010085, 37.65786778], [126.77010142, 37.65786713], [126.77010184, 37.65786642], [126.7701021, 37.65786566], [126.77010218, 37.65786488], [126.77010211, 37.65786409], [126.77010185, 37.65786334], [126.77010143, 37.65786262], [126.77010087, 37.65786198], [126.77010018, 37.65786142], [126.77009936, 37.65786097], [126.77009847, 37.65786064], [126.77009752, 37.65786044], [126.77009653, 37.65786036], [126.77009556, 37.65786043], [126.77009459, 37.65786063], [126.7700937, 37.65786096], [126.77009289, 37.65786141], [126.77009219, 37.65786197], [126.77009162, 37.6578626], [126.77009121, 37.65786332], [126.77009094, 37.65786407], [126.77009085, 37.65786486], [126.77009094, 37.65786564], [126.7700912, 37.6578664], [126.7700916, 37.65786711], [126.77009217, 37.65786776], [126.77009287, 37.65786831], [126.77009367, 37.65786876], [126.77009457, 37.6578691], [126.77009553, 37.65786931], [126.7700965, 37.65786937]]]}, "properties": {"name": "일산문화광장", "status": "partial", "capacity": 2, "active": 1, "industry": "비알코올 ", "vacancy_rate": 50.0, "vacancy_rate_lo": 50.0, "vacancy_rate_hi": 100.0, "stores": 1, "source": "stores+ledger", "capacity_method": "floor_ouln", "active_pip": 0, "licensed": 0, "com_floors": [1, 2], "occ_floors": [], "unknown_n": 1, "id": "4128510400108450000-1", "pnu": "4128510400108450000", "floors": 1, "height": 6.75}}, {"type": "Feature", "geometry": {"type": "Polygon", "coordinates": [[[126.76997755, 37.65734301], [126.77007668, 37.65716993], [126.76997752, 37.65713235], [126.76964507, 37.65700628], [126.76951711, 37.65722668], [126.76954132, 37.65727736], [126.7699322, 37.65742211], [126.76997755, 37.65734301]]]}, "properties": {"name": "메트로폴리스", "status": "partial", "capacity": 51, "active": 31, "industry": "이용·미용", "vacancy_rate": 39.2, "vacancy_rate_lo": null, "vacancy_rate_hi": null, "stores": 31, "source": "stores+ledger", "capacity_method": "expos_units", "active_pip": 0, "licensed": 0, "com_floors": null, "occ_floors": null, "unknown_n": null, "id": "4128510400108640002-1", "pnu": "4128510400108640002", "floors": 10, "height": 44.5}}, {"type": "Feature", "geometry": {"type": "Polygon", "coordinates": [[[126.77109912, 37.65677011], [126.77140441, 37.65688316], [126.77150593, 37.65670748], [126.7714839, 37.65664806], [126.77127981, 37.65657198], [126.77120335, 37.65659544], [126.77109912, 37.65677011]]]}, "properties": {"name": "호수빌딩", "status": "partial", "capacity": 17, "active": 11, "industry": "유원지·오락", "vacancy_rate": 35.3, "vacancy_rate_lo": null, "vacancy_rate_hi": null, "stores": 11, "source": "stores+ledger", "capacity_method": "expos_units", "active_pip": 0, "licensed": 0, "com_floors": null, "occ_floors": null, "unknown_n": null, "id": "4128510400108620001-1", "pnu": "4128510400108620001", "floors": 5, "height": 24.1}}, {"type": "Feature", "geometry": {"type": "Polygon", "coordinates": [[[126.77311483, 37.65568035], [126.77286281, 37.65611575], [126.77287795, 37.65613128], [126.77336164, 37.65631125], [126.77345768, 37.65614502], [126.7731388, 37.65602646], [126.77322525, 37.65588391], [126.77353925, 37.6560067], [126.77363802, 37.65583921], [126.7731695, 37.65566451], [126.77311483, 37.65568035]]]}, "properties": {"name": "양우드라마시티", "status": "full", "capacity": 2, "active": 2, "industry": "비알코올 ", "vacancy_rate": 0.0, "vacancy_rate_lo": 0.0, "vacancy_rate_hi": 0.0, "stores": 5, "source": "stores+ledger", "capacity_method": "floor_ouln", "active_pip": 0, "licensed": 0, "com_floors": [1, 2], "occ_floors": [1, 2], "unknown_n": 0, "id": "4128510400108540001-1", "pnu": "4128510400108540001", "floors": 10, "height": 33.6}}, {"type": "Feature", "geometry": {"type": "Polygon", "coordinates": [[[126.77077009, 37.65732934], [126.77108206, 37.65744582], [126.77118631, 37.65726745], [126.77116987, 37.65723201], [126.77111225, 37.65721081], [126.77111555, 37.65720685], [126.77097405, 37.6571572], [126.77097324, 37.65716116], [126.77091575, 37.6571369], [126.77087513, 37.65715088], [126.77077009, 37.65732934]]]}, "properties": {"name": "레이크프라자", "status": "partial", "capacity": 32, "active": 16, "industry": "유원지·오락", "vacancy_rate": 50.0, "vacancy_rate_lo": null, "vacancy_rate_hi": null, "stores": 16, "source": "stores+ledger", "capacity_method": "expos_units", "active_pip": 0, "licensed": 0, "com_floors": null, "occ_floors": null, "unknown_n": null, "id": "4128510400108610001-1", "pnu": "4128510400108610001", "floors": 5, "height": 21.65}}, {"type": "Feature", "geometry": {"type": "Polygon", "coordinates": [[[126.77204943, 37.65528409], [126.7717636, 37.65517892], [126.77164696, 37.65537457], [126.77185987, 37.65545499], [126.77184439, 37.65547866], [126.77192046, 37.65550458], [126.77204943, 37.65528409]]]}, "properties": {"name": "웨스턴돔", "status": "full", "capacity": 270, "active": 270, "industry": "섬유·의복·신발 소매", "vacancy_rate": 0.0, "vacancy_rate_lo": null, "vacancy_rate_hi": null, "stores": 270, "source": "stores+ledger", "capacity_method": "expos_units", "active_pip": 0, "licensed": 0, "com_floors": null, "occ_floors": null, "unknown_n": null, "id": "4128510400108670000-1", "pnu": "4128510400108670000", "floors": 0, "height": 0.0}}, {"type": "Feature", "geometry": {"type": "Polygon", "coordinates": [[[126.77373894, 37.65718711], [126.77382361, 37.65721917], [126.77393877, 37.65702523], [126.77385422, 37.65699325], [126.77373894, 37.65718711]]]}, "properties": {"name": "대한생명빌딩", "status": "full", "capacity": 2, "active": 2, "industry": "병원", "vacancy_rate": 0.0, "vacancy_rate_lo": null, "vacancy_rate_hi": null, "stores": 2, "source": "stores+ledger", "capacity_method": "expos_units", "active_pip": 0, "licensed": 0, "com_floors": null, "occ_floors": null, "unknown_n": null, "id": "4128510400108480000-1", "pnu": "4128510400108480000", "floors": 0, "height": 0.0}}, {"type": "Feature", "geometry": {"type": "Polygon", "coordinates": [[[126.77127667, 37.65710986], [126.77131336, 37.65712066], [126.77139655, 37.65696883], [126.77136622, 37.65695831], [126.77127667, 37.65710986]]]}, "properties": {"name": "제이", "status": "partial", "capacity": 12, "active": 7, "industry": "한식", "vacancy_rate": 41.7, "vacancy_rate_lo": null, "vacancy_rate_hi": null, "stores": 7, "source": "stores+ledger", "capacity_method": "expos_units", "active_pip": 0, "licensed": 0, "com_floors": null, "occ_floors": null, "unknown_n": null, "id": "4128510400108620000-1", "pnu": "4128510400108620000", "floors": 0, "height": 0.0}}, {"type": "Feature", "geometry": {"type": "Polygon", "coordinates": [[[126.77363178, 37.65776199], [126.77358906, 37.65783454], [126.7736915, 37.65787366], [126.77373512, 37.65780157], [126.77363178, 37.65776199]]]}, "properties": {"name": "웅신아트", "status": "full", "capacity": 72, "active": 72, "industry": "이용·미용", "vacancy_rate": 0.0, "vacancy_rate_lo": null, "vacancy_rate_hi": null, "stores": 72, "source": "stores+ledger", "capacity_method": "expos_units", "active_pip": 0, "licensed": 0, "com_floors": null, "occ_floors": null, "unknown_n": null, "id": "4128510400108470000-1", "pnu": "4128510400108470000", "floors": 0, "height": 0.0}}, {"type": "Feature", "geometry": {"type": "Polygon", "coordinates": [[[126.77497755, 37.6576918], [126.7750209, 37.65770801], [126.77512332, 37.6575327], [126.77507147, 37.65751305], [126.7751762, 37.65732035], [126.77519343, 37.65728452], [126.77503143, 37.65722664], [126.77500648, 37.65727083], [126.77497751, 37.65725771], [126.77497207, 37.65725526], [126.77481671, 37.65751336], [126.77490636, 37.65754751], [126.77485009, 37.65764417], [126.77497755, 37.6576918]]]}, "properties": {"name": "마두동 1011", "status": "empty", "capacity": 5, "active": 0, "industry": "", "vacancy_rate": 100.0, "source": "polygon_only", "capacity_method": "floor_approx", "active_pip": 0, "licensed": 0, "id": "4128510500110110000-1", "pnu": "4128510500110110000", "floors": 5, "height": 20.55}}, {"type": "Feature", "geometry": {"type": "Polygon", "coordinates": [[[126.77388771, 37.65338917], [126.7737754, 37.65357996], [126.77442161, 37.65382078], [126.77453586, 37.65362972], [126.77388771, 37.65338917]]]}, "properties": {"name": "장항동 885", "status": "empty", "capacity": 8, "active": 0, "industry": "", "vacancy_rate": 100.0, "source": "polygon_only", "capacity_method": "floor_approx", "active_pip": 0, "licensed": 0, "id": "4128510400108850000-1", "pnu": "4128510400108850000", "floors": 8, "height": 42.1}}, {"type": "Feature", "geometry": {"type": "Polygon", "coordinates": [[[126.77347795, 37.65615371], [126.77339877, 37.65628564], [126.77337804, 37.6563202], [126.7738485, 37.65649428], [126.77389148, 37.65648283], [126.77414063, 37.65605579], [126.77412511, 37.65602081], [126.77365567, 37.65584727], [126.77363721, 37.65588193], [126.77355826, 37.6560153], [126.77388088, 37.65613314], [126.77379828, 37.65627614], [126.77347795, 37.65615371]]]}, "properties": {"name": "신성하이네스트", "status": "full", "capacity": 3, "active": 3, "industry": "종합 소매", "vacancy_rate": 0.0, "vacancy_rate_lo": 0.0, "vacancy_rate_hi": 0.0, "stores": 6, "source": "stores+ledger", "capacity_method": "floor_ouln", "active_pip": 0, "licensed": 0, "com_floors": [1, 3, 6], "occ_floors": [1, 3, 6], "unknown_n": 0, "id": "4128510400108540000-1", "pnu": "4128510400108540000", "floors": 10, "height": 35.05}}, {"type": "Feature", "geometry": {"type": "Polygon", "coordinates": [[[126.76997759, 37.65743896], [126.77032918, 37.65756975], [126.77041005, 37.65754657], [126.77052911, 37.65734066], [126.77034608, 37.65727255], [126.77030053, 37.65734355], [126.77004854, 37.65725503], [126.76997758, 37.65736922], [126.76994227, 37.65742583], [126.76997759, 37.65743896]]]}, "properties": {"name": "메트로골드", "status": "high", "capacity": 39, "active": 17, "industry": "한식", "vacancy_rate": 56.4, "vacancy_rate_lo": null, "vacancy_rate_hi": null, "stores": 17, "source": "stores+ledger", "capacity_method": "expos_units", "active_pip": 0, "licensed": 0, "com_floors": null, "occ_floors": null, "unknown_n": null, "id": "4128510400108640000-1", "pnu": "4128510400108640000", "floors": 10, "height": 42.5}}, {"type": "Feature", "geometry": {"type": "Polygon", "coordinates": [[[126.77004188, 37.65793634], [126.77005036, 37.65794086], [126.77005886, 37.65794178], [126.77006532, 37.65794143], [126.77006396, 37.65793981], [126.77008053, 37.65793299], [126.7700852, 37.65792553], [126.77008546, 37.6579158], [126.77008558, 37.65791156], [126.7701128, 37.65790675], [126.77011022, 37.65789737], [126.77010216, 37.65790042], [126.77008573, 37.65790237], [126.77006522, 37.65790188], [126.77004686, 37.6578995], [126.77003249, 37.65789461], [126.77001427, 37.65788429], [126.77002342, 37.65789387], [126.77003096, 37.65791308], [126.77003277, 37.65791272], [126.77003487, 37.6579284], [126.77004188, 37.65793634]]]}, "properties": {"name": "일산문화광장", "status": "partial", "capacity": 2, "active": 1, "industry": "비알코올 ", "vacancy_rate": 50.0, "vacancy_rate_lo": 50.0, "vacancy_rate_hi": 100.0, "stores": 1, "source": "stores+ledger", "capacity_method": "floor_ouln", "active_pip": 0, "licensed": 0, "com_floors": [1, 2], "occ_floors": [], "unknown_n": 1, "id": "4128510400108450000-2", "pnu": "4128510400108450000", "floors": 0, "height": 0.0}}, {"type": "Feature", "geometry": {"type": "Polygon", "coordinates": [[[126.77165821, 37.65701033], [126.77155045, 37.65719121], [126.77156768, 37.65722422], [126.7718192, 37.65731833], [126.77186219, 37.65730535], [126.77196792, 37.65712509], [126.77165821, 37.65701033]]]}, "properties": {"name": "레이크프라자", "status": "high", "capacity": 41, "active": 15, "industry": "한식", "vacancy_rate": 63.4, "vacancy_rate_lo": null, "vacancy_rate_hi": null, "stores": 15, "source": "stores+ledger", "capacity_method": "expos_units", "active_pip": 0, "licensed": 0, "com_floors": null, "occ_floors": null, "unknown_n": null, "id": "4128510400108590000-1", "pnu": "4128510400108590000", "floors": 5, "height": 21.75}}, {"type": "Feature", "geometry": {"type": "Polygon", "coordinates": [[[126.76909608, 37.65309404], [126.76887393, 37.65347138], [126.76879719, 37.65347592], [126.76815059, 37.65380061], [126.76819785, 37.65383305], [126.76793131, 37.65398109], [126.76839101, 37.65396083], [126.76836671, 37.65401205], [126.76844278, 37.65403724], [126.76842384, 37.65407829], [126.76850649, 37.65410467], [126.76848369, 37.65414625], [126.76861854, 37.65418499], [126.76871803, 37.65429474], [126.76870453, 37.65430102], [126.76880785, 37.65441862], [126.76899913, 37.65431233], [126.76894131, 37.65424698], [126.76915791, 37.65412542], [126.76911433, 37.65407389], [126.76941333, 37.65391023], [126.76916928, 37.65393128], [126.76916506, 37.65390325], [126.76918229, 37.65390067], [126.76911897, 37.65330978], [126.7691302, 37.65330719], [126.76912237, 37.65323816], [126.76905186, 37.65324613], [126.76908411, 37.65318853], [126.76910633, 37.65318722], [126.76909608, 37.65309404]]]}, "properties": {"name": "장항동 906", "status": "empty", "capacity": 2, "active": 0, "industry": "", "vacancy_rate": 100.0, "source": "polygon_only", "capacity_method": "floor_approx", "active_pip": 0, "licensed": 0, "id": "4128510400109060000-1", "pnu": "4128510400109060000", "floors": 2, "height": 30.0}}, {"type": "Feature", "geometry": {"type": "Polygon", "coordinates": [[[126.7749776, 37.65611066], [126.77501447, 37.65610028], [126.77520642, 37.65577432], [126.77497765, 37.65569009], [126.77467835, 37.65557994], [126.77448788, 37.65590286], [126.77450904, 37.6559493], [126.77496025, 37.65611549], [126.7749776, 37.65611066]]]}, "properties": {"name": "동양메이저타워", "status": "full", "capacity": 6, "active": 6, "industry": "한식", "vacancy_rate": 0.0, "vacancy_rate_lo": null, "vacancy_rate_hi": null, "stores": 6, "source": "stores+ledger", "capacity_method": "expos_units", "active_pip": 0, "licensed": 0, "com_floors": null, "occ_floors": null, "unknown_n": null, "id": "4128510400108490000-1", "pnu": "4128510400108490000", "floors": 15, "height": 56.5}}, {"type": "Feature", "geometry": {"type": "Polygon", "coordinates": [[[126.77373187, 37.65566469], [126.77383406, 37.65552097], [126.77353983, 37.65541437], [126.77357843, 37.65533145], [126.77386667, 37.65542385], [126.7739567, 37.65528771], [126.77348456, 37.65510653], [126.77343683, 37.65512081], [126.77326269, 37.65545756], [126.77327045, 37.65550042], [126.77373187, 37.65566469]]]}, "properties": {"name": "웨스턴", "status": "full", "capacity": 32, "active": 32, "industry": "이용·미용", "vacancy_rate": 0.0, "vacancy_rate_lo": null, "vacancy_rate_hi": null, "stores": 32, "source": "stores+ledger", "capacity_method": "expos_units", "active_pip": 0, "licensed": 0, "com_floors": null, "occ_floors": null, "unknown_n": null, "id": "4128510400108530001-1", "pnu": "4128510400108530001", "floors": 10, "height": 39.15}}, {"type": "Feature", "geometry": {"type": "Polygon", "coordinates": [[[126.76997757, 37.6566106], [126.77032984, 37.65673959], [126.77033952, 37.65672429], [126.77044583, 37.65653574], [126.77001603, 37.65637578], [126.76997753, 37.65644111], [126.76991407, 37.65654893], [126.76993614, 37.65659537], [126.76997757, 37.6566106]]]}, "properties": {"name": "일호골든타워", "status": "partial", "capacity": 39, "active": 28, "industry": "기타 교육", "vacancy_rate": 28.2, "vacancy_rate_lo": null, "vacancy_rate_hi": null, "stores": 28, "source": "stores+ledger", "capacity_method": "expos_units", "active_pip": 0, "licensed": 0, "com_floors": null, "occ_floors": null, "unknown_n": null, "id": "4128510400108630002-1", "pnu": "4128510400108630002", "floors": 7, "height": 26.5}}, {"type": "Feature", "geometry": {"type": "Polygon", "coordinates": [[[126.77270265, 37.65844151], [126.77276095, 37.65842441], [126.77280744, 37.65834387], [126.77281819, 37.6583483], [126.77289237, 37.6582197], [126.77256589, 37.65809969], [126.77251976, 37.65817744], [126.77241521, 37.65834293], [126.77245438, 37.65835706], [126.77270265, 37.65844151]]]}, "properties": {"name": "호수광장빌딩", "status": "full", "capacity": 34, "active": 34, "industry": "기타 교육", "vacancy_rate": 0.0, "vacancy_rate_lo": null, "vacancy_rate_hi": null, "stores": 34, "source": "stores+ledger", "capacity_method": "expos_units", "active_pip": 0, "licensed": 0, "com_floors": null, "occ_floors": null, "unknown_n": null, "id": "4128510400108570000-1", "pnu": "4128510400108570000", "floors": 10, "height": 39.65}}, {"type": "Feature", "geometry": {"type": "Polygon", "coordinates": [[[126.77305844, 37.65842419], [126.77298315, 37.65854937], [126.7733926, 37.65870099], [126.77351579, 37.65866546], [126.77361047, 37.6585014], [126.77356451, 37.65848463], [126.77359515, 37.65843144], [126.77364134, 37.65844829], [126.77377339, 37.65822141], [126.77336372, 37.65806637], [126.77328911, 37.65819245], [126.7732285, 37.6582946], [126.77338004, 37.65836391], [126.77334541, 37.65842141], [126.77311906, 37.65832114], [126.77305844, 37.65842419]]]}, "properties": {"name": "센트럴프라자", "status": "full", "capacity": 120, "active": 120, "industry": "의원", "vacancy_rate": 0.0, "vacancy_rate_lo": null, "vacancy_rate_hi": null, "stores": 120, "source": "stores+ledger", "capacity_method": "expos_units", "active_pip": 0, "licensed": 0, "com_floors": null, "occ_floors": null, "unknown_n": null, "id": "4128510400108460000-1", "pnu": "4128510400108460000", "floors": 10, "height": 44.5}}, {"type": "Feature", "geometry": {"type": "Polygon", "coordinates": [[[126.77167774, 37.65571691], [126.77196503, 37.65582488], [126.77218744, 37.65543941], [126.77205114, 37.65539014], [126.77191057, 37.65562556], [126.77185872, 37.65560681], [126.7718757, 37.6555772], [126.7717779, 37.65554187], [126.77167774, 37.65571691]]]}, "properties": {"name": "웨스턴돔", "status": "full", "capacity": 270, "active": 270, "industry": "섬유·의복·신발 소매", "vacancy_rate": 0.0, "vacancy_rate_lo": null, "vacancy_rate_hi": null, "stores": 270, "source": "stores+ledger", "capacity_method": "expos_units", "active_pip": 0, "licensed": 0, "com_floors": null, "occ_floors": null, "unknown_n": null, "id": "4128510400108670000-2", "pnu": "4128510400108670000", "floors": 0, "height": 0.0}}, {"type": "Feature", "geometry": {"type": "Polygon", "coordinates": [[[126.77239476, 37.65560561], [126.77244121, 37.65560849], [126.77248653, 37.65561389], [126.77252419, 37.65563658], [126.7725595, 37.65557845], [126.77262097, 37.65559938], [126.77262048, 37.65557586], [126.77262319, 37.65554118], [126.77259659, 37.65553086], [126.77263441, 37.65546894], [126.77261379, 37.65546665], [126.77257347, 37.65545738], [126.7725376, 37.65544173], [126.7725039, 37.65541715], [126.77239476, 37.65560561]]]}, "properties": {"name": "웨스턴돔", "status": "full", "capacity": 270, "active": 270, "industry": "섬유·의복·신발 소매", "vacancy_rate": 0.0, "vacancy_rate_lo": null, "vacancy_rate_hi": null, "stores": 270, "source": "stores+ledger", "capacity_method": "expos_units", "active_pip": 0, "licensed": 0, "com_floors": null, "occ_floors": null, "unknown_n": null, "id": "4128510400108670000-3", "pnu": "4128510400108670000", "floors": 0, "height": 0.0}}, {"type": "Feature", "geometry": {"type": "Polygon", "coordinates": [[[126.77209633, 37.65657205], [126.77216572, 37.65659786], [126.77220802, 37.65658614], [126.77224314, 37.6565199], [126.77225236, 37.65650919], [126.7722599, 37.65648813], [126.77226292, 37.65646489], [126.77226228, 37.65645092], [126.77225804, 37.65643091], [126.77225173, 37.6564163], [126.77224191, 37.65640502], [126.77222836, 37.65638959], [126.77223329, 37.65637131], [126.77231037, 37.6564011], [126.77239158, 37.65626827], [126.77270105, 37.65572495], [126.77249989, 37.65565518], [126.77218433, 37.65618722], [126.77208475, 37.65636246], [126.77204604, 37.65634616], [126.77203219, 37.65635019], [126.77200516, 37.65636797], [126.77198005, 37.65638964], [126.77196091, 37.65642294], [126.77195401, 37.65645546], [126.7719536, 37.65647843], [126.77199706, 37.65649807], [126.77200346, 37.65651475], [126.77201656, 37.65653162], [126.77204131, 37.6565523], [126.77207946, 37.65656751], [126.77209418, 37.65657168], [126.77209633, 37.65657205]]]}, "properties": {"name": "웨스턴돔", "status": "full", "capacity": 270, "active": 270, "industry": "섬유·의복·신발 소매", "vacancy_rate": 0.0, "vacancy_rate_lo": null, "vacancy_rate_hi": null, "stores": 270, "source": "stores+ledger", "capacity_method": "expos_units", "active_pip": 0, "licensed": 0, "com_floors": null, "occ_floors": null, "unknown_n": null, "id": "4128510400108670000-4", "pnu": "4128510400108670000", "floors": 0, "height": 0.0}}, {"type": "Feature", "geometry": {"type": "Polygon", "coordinates": [[[126.7705191, 37.65731929], [126.770511, 37.65733378], [126.7705247, 37.65733885], [126.7705328, 37.65732445], [126.7705191, 37.65731929]]]}, "properties": {"name": "메트로골드", "status": "high", "capacity": 39, "active": 17, "industry": "한식", "vacancy_rate": 56.4, "vacancy_rate_lo": null, "vacancy_rate_hi": null, "stores": 17, "source": "stores+ledger", "capacity_method": "expos_units", "active_pip": 0, "licensed": 0, "com_floors": null, "occ_floors": null, "unknown_n": null, "id": "4128510400108640000-2", "pnu": "4128510400108640000", "floors": 0, "height": 0.0}}, {"type": "Feature", "geometry": {"type": "Polygon", "coordinates": [[[126.77197069, 37.65630168], [126.77206646, 37.65633755], [126.77209327, 37.65631841], [126.77212417, 37.6562918], [126.77215745, 37.65623132], [126.77218684, 37.65618155], [126.77219895, 37.65615058], [126.77220356, 37.65612383], [126.7722035, 37.65610726], [126.77210604, 37.65607238], [126.77206208, 37.65610545], [126.77197515, 37.65625556], [126.77197192, 37.65627123], [126.77196927, 37.65628348], [126.77197069, 37.65630168]]]}, "properties": {"name": "웨스턴돔", "status": "full", "capacity": 270, "active": 270, "industry": "섬유·의복·신발 소매", "vacancy_rate": 0.0, "vacancy_rate_lo": null, "vacancy_rate_hi": null, "stores": 270, "source": "stores+ledger", "capacity_method": "expos_units", "active_pip": 0, "licensed": 0, "com_floors": null, "occ_floors": null, "unknown_n": null, "id": "4128510400108670000-5", "pnu": "4128510400108670000", "floors": 0, "height": 0.0}}, {"type": "Feature", "geometry": {"type": "Polygon", "coordinates": [[[126.77242001, 37.65829365], [126.77264764, 37.65790632], [126.77268251, 37.6578434], [126.7722152, 37.65767626], [126.77223275, 37.65764539], [126.77208027, 37.65758841], [126.77206569, 37.65761307], [126.77203411, 37.6576013], [126.77201428, 37.65763478], [126.7719973, 37.65762898], [126.77198527, 37.65763562], [126.77197072, 37.65765118], [126.77193608, 37.6577103], [126.77189188, 37.65778626], [126.77188512, 37.65780896], [126.77187711, 37.65787111], [126.77184237, 37.65792925], [126.7718133, 37.65797983], [126.7718079, 37.65800504], [126.7718091, 37.65801955], [126.77181312, 37.65803956], [126.77183162, 37.65806762], [126.77186725, 37.65808985], [126.77195962, 37.65812237], [126.77242001, 37.65829365]]]}, "properties": {"name": "벧엘교회", "status": "high", "capacity": 10, "active": 2, "industry": "종합 소매", "vacancy_rate": 80.0, "vacancy_rate_lo": 80.0, "vacancy_rate_hi": 90.0, "stores": 2, "source": "stores+ledger", "capacity_method": "floor_ouln", "active_pip": 0, "licensed": 0, "com_floors": [1, 2, 3, 4, 5, 6, 7, 8, 9, 10], "occ_floors": [1], "unknown_n": 1, "id": "4128510400108570002-1", "pnu": "4128510400108570002", "floors": 10, "height": 39.9}}, {"type": "Feature", "geometry": {"type": "Polygon", "coordinates": [[[126.77261395, 37.65758414], [126.77270679, 37.65742782], [126.7726288, 37.65739848], [126.77248175, 37.65734495], [126.77251091, 37.65729905], [126.77227059, 37.65720929], [126.77223527, 37.65719607], [126.77213468, 37.65736463], [126.77215775, 37.65741702], [126.77261395, 37.65758414]]]}, "properties": {"name": "파크프라자", "status": "full", "capacity": 60, "active": 60, "industry": "한식", "vacancy_rate": 0.0, "vacancy_rate_lo": null, "vacancy_rate_hi": null, "stores": 60, "source": "stores+ledger", "capacity_method": "expos_units", "active_pip": 0, "licensed": 0, "com_floors": null, "occ_floors": null, "unknown_n": null, "id": "4128510400108560002-1", "pnu": "4128510400108560002", "floors": 10, "height": 38.95}}, {"type": "Feature", "geometry": {"type": "Polygon", "coordinates": [[[126.77126654, 37.65712624], [126.77140279, 37.65689469], [126.77108211, 37.65677548], [126.77094561, 37.65700767], [126.77126654, 37.65712624]]]}, "properties": {"name": "제이", "status": "partial", "capacity": 12, "active": 7, "industry": "한식", "vacancy_rate": 41.7, "vacancy_rate_lo": null, "vacancy_rate_hi": null, "stores": 7, "source": "stores+ledger", "capacity_method": "expos_units", "active_pip": 0, "licensed": 0, "com_floors": null, "occ_floors": null, "unknown_n": null, "id": "4128510400108620000-2", "pnu": "4128510400108620000", "floors": 5, "height": 28.35}}, {"type": "Feature", "geometry": {"type": "Polygon", "coordinates": [[[126.7717998, 37.65513908], [126.77267253, 37.65544581], [126.77287569, 37.65546366], [126.77348569, 37.65440005], [126.77263307, 37.65409032], [126.77261658, 37.65411902], [126.7725975, 37.65411209], [126.77259633, 37.65411414], [126.77245044, 37.65406114], [126.77235341, 37.65422999], [126.7724993, 37.65428299], [126.77234478, 37.65455185], [126.77259226, 37.65464274], [126.77257977, 37.65466446], [126.77263751, 37.65468543], [126.77257116, 37.65480455], [126.77244042, 37.65475305], [126.77245839, 37.6547135], [126.77230662, 37.65465837], [126.77217189, 37.65489279], [126.77198117, 37.6548235], [126.7717998, 37.65513908]]]}, "properties": {"name": "장항동 868", "status": "empty", "capacity": 9, "active": 0, "industry": "", "vacancy_rate": 100.0, "source": "polygon_only", "capacity_method": "floor_approx", "active_pip": 0, "licensed": 0, "id": "4128510400108680000-1", "pnu": "4128510400108680000", "floors": 9, "height": 42.4}}, {"type": "Feature", "geometry": {"type": "Polygon", "coordinates": [[[126.77227467, 37.65581287], [126.7721726, 37.6559861], [126.77227934, 37.65602514], [126.7724983, 37.65565455], [126.7723918, 37.65561073], [126.77227467, 37.65581287]]]}, "properties": {"name": "웨스턴돔", "status": "full", "capacity": 270, "active": 270, "industry": "섬유·의복·신발 소매", "vacancy_rate": 0.0, "vacancy_rate_lo": null, "vacancy_rate_hi": null, "stores": 270, "source": "stores+ledger", "capacity_method": "expos_units", "active_pip": 0, "licensed": 0, "com_floors": null, "occ_floors": null, "unknown_n": null, "id": "4128510400108670000-6", "pnu": "4128510400108670000", "floors": 0, "height": 0.0}}, {"type": "Feature", "geometry": {"type": "Polygon", "coordinates": [[[126.77173859, 37.65630475], [126.77183918, 37.65628323], [126.77178787, 37.65620123], [126.77191172, 37.65598857], [126.77179302, 37.65593122], [126.77171236, 37.65610234], [126.77171121, 37.65610648], [126.77171373, 37.65620793], [126.77172029, 37.65624957], [126.77173859, 37.65630475]]]}, "properties": {"name": "웨스턴돔", "status": "full", "capacity": 270, "active": 270, "industry": "섬유·의복·신발 소매", "vacancy_rate": 0.0, "vacancy_rate_lo": null, "vacancy_rate_hi": null, "stores": 270, "source": "stores+ledger", "capacity_method": "expos_units", "active_pip": 0, "licensed": 0, "com_floors": null, "occ_floors": null, "unknown_n": null, "id": "4128510400108670000-7", "pnu": "4128510400108670000", "floors": 0, "height": 0.0}}, {"type": "Feature", "geometry": {"type": "Polygon", "coordinates": [[[126.77461229, 37.65353743], [126.77438241, 37.65393044], [126.77460847, 37.65401124], [126.7748313, 37.65362344], [126.77461229, 37.65353743]]]}, "properties": {"name": "장항동 885", "status": "empty", "capacity": 2, "active": 0, "industry": "", "vacancy_rate": 100.0, "source": "polygon_only", "capacity_method": "floor_approx", "active_pip": 0, "licensed": 0, "id": "4128510400108850000-2", "pnu": "4128510400108850000", "floors": 2, "height": 8.8}}, {"type": "Feature", "geometry": {"type": "Polygon", "coordinates": [[[126.77284059, 37.65817572], [126.77289198, 37.65819564], [126.77301274, 37.65799289], [126.7729942, 37.65794104], [126.77271064, 37.65783607], [126.77269173, 37.65786919], [126.7726776, 37.65789376], [126.77257017, 37.65807284], [126.7727926, 37.65815743], [126.77284059, 37.65817572]]]}, "properties": {"name": "라고프라자", "status": "high", "capacity": 53, "active": 18, "industry": "기타 교육", "vacancy_rate": 66.0, "vacancy_rate_lo": null, "vacancy_rate_hi": null, "stores": 18, "source": "stores+ledger", "capacity_method": "expos_units", "active_pip": 0, "licensed": 0, "com_floors": null, "occ_floors": null, "unknown_n": null, "id": "4128510400108570001-1", "pnu": "4128510400108570001", "floors": 10, "height": 38.55}}, {"type": "Feature", "geometry": {"type": "Polygon", "coordinates": [[[126.77100435, 37.65652216], [126.77097972, 37.65646193], [126.77019164, 37.65617115], [126.77012914, 37.65619013], [126.77002094, 37.65636597], [126.77013051, 37.65640538], [126.77018611, 37.65631115], [126.77024203, 37.65633009], [126.77021662, 37.6563759], [126.77043044, 37.65645634], [126.77044491, 37.65643204], [126.77050049, 37.65645287], [126.77051051, 37.65643595], [126.7705292, 37.65644293], [126.77053091, 37.65643996], [126.77069595, 37.65650109], [126.77064125, 37.65659433], [126.77090307, 37.65669459], [126.77100435, 37.65652216]]]}, "properties": {"name": "드림월드빌딩", "status": "full", "capacity": 85, "active": 85, "industry": "이용·미용", "vacancy_rate": 0.0, "vacancy_rate_lo": null, "vacancy_rate_hi": null, "stores": 85, "source": "stores+ledger", "capacity_method": "expos_units", "active_pip": 0, "licensed": 0, "com_floors": null, "occ_floors": null, "unknown_n": null, "id": "4128510400108630001-1", "pnu": "4128510400108630001", "floors": 8, "height": 34.3}}, {"type": "Feature", "geometry": {"type": "Polygon", "coordinates": [[[126.77263895, 37.65759915], [126.7730991, 37.65777168], [126.77316375, 37.65775307], [126.77326243, 37.65757982], [126.77321049, 37.65755657], [126.77309252, 37.65751254], [126.77306224, 37.65755924], [126.77290579, 37.65750335], [126.77293461, 37.65745367], [126.77275802, 37.65738882], [126.77266073, 37.65755513], [126.77263895, 37.65759915]]]}, "properties": {"name": "메리트윈", "status": "partial", "capacity": 50, "active": 39, "industry": "이용·미용", "vacancy_rate": 22.0, "vacancy_rate_lo": null, "vacancy_rate_hi": null, "stores": 39, "source": "stores+ledger", "capacity_method": "expos_units", "active_pip": 0, "licensed": 0, "com_floors": null, "occ_floors": null, "unknown_n": null, "id": "4128510400108560000-1", "pnu": "4128510400108560000", "floors": 9, "height": 33.8}}, {"type": "Feature", "geometry": {"type": "Polygon", "coordinates": [[[126.7746502, 37.65533178], [126.77489441, 37.65493656], [126.77435249, 37.65472423], [126.7741101, 37.65512172], [126.77428622, 37.65519076], [126.77431913, 37.65518068], [126.77430511, 37.65515878], [126.77433668, 37.65514924], [126.77432534, 37.65512574], [126.77435891, 37.65511993], [126.77434423, 37.65509643], [126.77437444, 37.65508955], [126.77436378, 37.65506392], [126.77439266, 37.65505651], [126.77438065, 37.65503248], [126.77441153, 37.65502774], [126.77439885, 37.65500584], [126.77442975, 37.65499682], [126.77443583, 37.6549851], [126.77455246, 37.6550296], [126.77454505, 37.65504027], [126.77455437, 37.65506536], [126.77452414, 37.65507277], [126.77453482, 37.65509573], [126.77450594, 37.65510047], [126.77451929, 37.65512611], [126.77448772, 37.65513405], [126.77449906, 37.65515648], [126.77446817, 37.65516389], [126.77448018, 37.65518686], [126.77444929, 37.6551932], [126.77446263, 37.65521671], [126.77443174, 37.65522519], [126.77443838, 37.6552492], [126.7746502, 37.65533178]]]}, "properties": {"name": "현대에뜨레보", "status": "partial", "capacity": 9, "active": 8, "industry": "이용·미용", "vacancy_rate": 11.1, "vacancy_rate_lo": null, "vacancy_rate_hi": null, "stores": 8, "source": "stores+ledger", "capacity_method": "expos_units", "active_pip": 0, "licensed": 0, "com_floors": null, "occ_floors": null, "unknown_n": null, "id": "4128510400108520000-1", "pnu": "4128510400108520000", "floors": 15, "height": 60.55}}, {"type": "Feature", "geometry": {"type": "Polygon", "coordinates": [[[126.76900714, 37.6565001], [126.76881663, 37.65643026], [126.76857136, 37.65684242], [126.76861564, 37.65692478], [126.769251, 37.65716002], [126.76932757, 37.65713693], [126.76957697, 37.65671314], [126.76950339, 37.65668651], [126.76950362, 37.65668597], [126.76949536, 37.65668298], [126.76950402, 37.65666786], [126.76949541, 37.65666469], [126.76949462, 37.65666604], [126.76946621, 37.65665445], [126.7694653, 37.65665589], [126.76945001, 37.65665055], [126.7694646, 37.65662391], [126.76935185, 37.65658395], [126.76931004, 37.65665577], [126.76906879, 37.65675548], [126.7691357, 37.65684868], [126.7691786, 37.65682921], [126.76918627, 37.65683986], [126.76923257, 37.65681887], [126.76923628, 37.65682852], [126.76924768, 37.65684431], [126.76926577, 37.65685804], [126.76928455, 37.65686654], [126.76930936, 37.65687101], [126.76932194, 37.65687139], [126.7692577, 37.65697407], [126.76922589, 37.65696346], [126.76921951, 37.65697399], [126.76915351, 37.65695242], [126.76915385, 37.65695179], [126.76913608, 37.65694599], [126.7691182, 37.65697343], [126.76898383, 37.65692388], [126.76899261, 37.65690885], [126.76895525, 37.65689581], [126.76894592, 37.65690912], [126.76883363, 37.656868], [126.76884206, 37.65685333], [126.76880425, 37.65683839], [126.76890873, 37.65666118], [126.76894087, 37.65667252], [126.76900126, 37.65657046], [126.76896798, 37.65655805], [126.76898085, 37.65653627], [126.76898504, 37.6565379], [126.76900714, 37.6565001]]]}, "properties": {"name": "코오롱레이크폴리스1차", "status": "full", "capacity": 5, "active": 5, "industry": "한식", "vacancy_rate": 0.0, "vacancy_rate_lo": null, "vacancy_rate_hi": null, "stores": 5, "source": "stores+ledger", "capacity_method": "expos_units", "active_pip": 0, "licensed": 0, "com_floors": null, "occ_floors": null, "unknown_n": null, "id": "4128510400108650000-1", "pnu": "4128510400108650000", "floors": 15, "height": 53.5}}, {"type": "Feature", "geometry": {"type": "Polygon", "coordinates": [[[126.77118411, 37.65783254], [126.77120062, 37.65788051], [126.77138967, 37.65794845], [126.77145331, 37.65792731], [126.77159825, 37.65767081], [126.7714932, 37.65763241], [126.77142472, 37.65760732], [126.77133778, 37.65757543], [126.77118411, 37.65783254]]]}, "properties": {"name": "맥클린", "status": "high", "capacity": 23, "active": 10, "industry": "한식", "vacancy_rate": 56.5, "vacancy_rate_lo": null, "vacancy_rate_hi": null, "stores": 10, "source": "stores+ledger", "capacity_method": "expos_units", "active_pip": 0, "licensed": 0, "com_floors": null, "occ_floors": null, "unknown_n": null, "id": "4128510400108580000-1", "pnu": "4128510400108580000", "floors": 5, "height": 23.45}}, {"type": "Feature", "geometry": {"type": "Polygon", "coordinates": [[[126.77158809, 37.65696379], [126.77171191, 37.65701548], [126.77172102, 37.65700243], [126.77197865, 37.65710097], [126.77197888, 37.65710106], [126.77207583, 37.65693609], [126.77204421, 37.65686233], [126.77178635, 37.65676795], [126.77172669, 37.65678333], [126.77158809, 37.65696379]]]}, "properties": {"name": "진원프라자", "status": "full", "capacity": 5, "active": 5, "industry": "유원지·오락", "vacancy_rate": 0.0, "vacancy_rate_lo": 0.0, "vacancy_rate_hi": 20.0, "stores": 11, "source": "stores+ledger", "capacity_method": "floor_ouln", "active_pip": 0, "licensed": 0, "com_floors": [1, 2, 3, 4, 5], "occ_floors": [1, 2, 3, 4], "unknown_n": 1, "id": "4128510400108590001-1", "pnu": "4128510400108590001", "floors": 5, "height": 21.6}}, {"type": "Feature", "geometry": {"type": "Polygon", "coordinates": [[[126.77200566, 37.65536689], [126.77219368, 37.65543591], [126.77202688, 37.65572301], [126.77205902, 37.65573541], [126.77204922, 37.65575269], [126.77200365, 37.65583288], [126.77191661, 37.65598227], [126.77178911, 37.65620123], [126.7718438, 37.65628954], [126.77197447, 37.6562543], [126.77209421, 37.65604794], [126.77223879, 37.65579892], [126.77227365, 37.65581241], [126.77250277, 37.65541679], [126.77206641, 37.6552552], [126.77200566, 37.65536689]]]}, "properties": {"name": "웨스턴돔", "status": "full", "capacity": 270, "active": 270, "industry": "섬유·의복·신발 소매", "vacancy_rate": 0.0, "vacancy_rate_lo": null, "vacancy_rate_hi": null, "stores": 270, "source": "stores+ledger", "capacity_method": "expos_units", "active_pip": 0, "licensed": 0, "com_floors": null, "occ_floors": null, "unknown_n": null, "id": "4128510400108670000-8", "pnu": "4128510400108670000", "floors": 10, "height": 45.8}}, {"type": "Feature", "geometry": {"type": "Polygon", "coordinates": [[[126.77070585, 37.65688494], [126.77071718, 37.65688757], [126.77073678, 37.65688995], [126.77075389, 37.65688963], [126.77076965, 37.65688804], [126.77079302, 37.65687772], [126.77080484, 37.65686657], [126.77089792, 37.65671116], [126.77085039, 37.65669205], [126.77081428, 37.65667748], [126.77052188, 37.65656905], [126.77051938, 37.65657346], [126.77046765, 37.65655426], [126.77045044, 37.6565835], [126.77044965, 37.65658494], [126.7703822, 37.65669978], [126.77038322, 37.65670014], [126.77035838, 37.65674253], [126.77035212, 37.65675143], [126.77067496, 37.65687145], [126.77070585, 37.65688494]]]}, "properties": {"name": "지평프라자", "status": "partial", "capacity": 23, "active": 14, "industry": "기타 교육", "vacancy_rate": 39.1, "vacancy_rate_lo": null, "vacancy_rate_hi": null, "stores": 14, "source": "stores+ledger", "capacity_method": "expos_units", "active_pip": 0, "licensed": 0, "com_floors": null, "occ_floors": null, "unknown_n": null, "id": "4128510400108630000-1", "pnu": "4128510400108630000", "floors": 10, "height": 35.9}}, {"type": "Feature", "geometry": {"type": "Polygon", "coordinates": [[[126.7725145, 37.65672369], [126.77254263, 37.65678853], [126.77344742, 37.65712176], [126.77352026, 37.65710063], [126.7737612, 37.65668818], [126.77374488, 37.65665247], [126.77335933, 37.65651045], [126.77328111, 37.65648056], [126.77280782, 37.65630575], [126.77274748, 37.65632284], [126.7725145, 37.65672369]]]}, "properties": {"name": "장항동이스턴시티", "status": "full", "capacity": 64, "active": 64, "industry": "한식", "vacancy_rate": 0.0, "vacancy_rate_lo": null, "vacancy_rate_hi": null, "stores": 64, "source": "stores+ledger", "capacity_method": "expos_units", "active_pip": 0, "licensed": 0, "com_floors": null, "occ_floors": null, "unknown_n": null, "id": "4128510400108550000-1", "pnu": "4128510400108550000", "floors": 8, "height": 36.2}}, {"type": "Feature", "geometry": {"type": "Polygon", "coordinates": [[[126.77134164, 37.65753877], [126.77167217, 37.65766096], [126.77178368, 37.65747166], [126.77176813, 37.65744175], [126.77151165, 37.65734383], [126.77145232, 37.65735115], [126.77134164, 37.65753877]]]}, "properties": {"name": "킹타운", "status": "partial", "capacity": 27, "active": 16, "industry": "기타 교육", "vacancy_rate": 40.7, "vacancy_rate_lo": null, "vacancy_rate_hi": null, "stores": 16, "source": "stores+ledger", "capacity_method": "expos_units", "active_pip": 0, "licensed": 0, "com_floors": null, "occ_floors": null, "unknown_n": null, "id": "4128510400108580001-1", "pnu": "4128510400108580001", "floors": 5, "height": 27.9}}, {"type": "Feature", "geometry": {"type": "Polygon", "coordinates": [[[126.77279333, 37.65736808], [126.77321547, 37.65752243], [126.77325826, 37.65753576], [126.77333971, 37.65739906], [126.77334359, 37.65738969], [126.77334395, 37.65738357], [126.77334217, 37.65737374], [126.77333438, 37.65736291], [126.77332512, 37.65735307], [126.77331867, 37.65734927], [126.77293345, 37.65720735], [126.77294086, 37.65719466], [126.77290475, 37.65718053], [126.7728233, 37.65731552], [126.77279333, 37.65736808]]]}, "properties": {"name": "대양빌딩", "status": "partial", "capacity": 39, "active": 29, "industry": "이용·미용", "vacancy_rate": 25.6, "vacancy_rate_lo": null, "vacancy_rate_hi": null, "stores": 29, "source": "stores+ledger", "capacity_method": "expos_units", "active_pip": 0, "licensed": 0, "com_floors": null, "occ_floors": null, "unknown_n": null, "id": "4128510400108560001-1", "pnu": "4128510400108560001", "floors": 10, "height": 41.08}}, {"type": "Feature", "geometry": {"type": "Polygon", "coordinates": [[[126.77366443, 37.65771926], [126.77365776, 37.65771618], [126.77358838, 37.65783481], [126.77369172, 37.65787429], [126.77374139, 37.65779222], [126.77375463, 37.6577972], [126.77377777, 37.65775354], [126.77383607, 37.65777321], [126.77384265, 37.65777286], [126.77384503, 37.65777277], [126.773849, 37.65777152], [126.77385217, 37.65776991], [126.77385877, 37.6577637], [126.77390559, 37.65768261], [126.77372617, 37.65761532], [126.77366443, 37.65771926]]]}, "properties": {"name": "웅신아트", "status": "full", "capacity": 72, "active": 72, "industry": "이용·미용", "vacancy_rate": 0.0, "vacancy_rate_lo": null, "vacancy_rate_hi": null, "stores": 72, "source": "stores+ledger", "capacity_method": "expos_units", "active_pip": 0, "licensed": 0, "com_floors": null, "occ_floors": null, "unknown_n": null, "id": "4128510400108470000-2", "pnu": "4128510400108470000", "floors": 0, "height": 0.0}}, {"type": "Feature", "geometry": {"type": "Polygon", "coordinates": [[[126.77500754, 37.65499251], [126.77497758, 37.65504318], [126.77488451, 37.65520076], [126.7747961, 37.65535321], [126.77496816, 37.65541679], [126.77497756, 37.65542033], [126.77532078, 37.65554713], [126.77536262, 37.6555036], [126.77541562, 37.6554401], [126.7754549, 37.65537945], [126.77548931, 37.65531806], [126.77551078, 37.65526225], [126.77552761, 37.65520633], [126.77553394, 37.65517544], [126.7754942, 37.6551613], [126.77548236, 37.65518164], [126.77533984, 37.65512893], [126.77535294, 37.65510652], [126.77504482, 37.65499258], [126.77500754, 37.65499251]]]}, "properties": {"name": "장항동 849-1", "status": "high", "capacity": 3, "active": 1, "industry": "기타 가정용품 수리", "vacancy_rate": 66.7, "vacancy_rate_lo": 66.7, "vacancy_rate_hi": 100.0, "stores": 1, "source": "stores+ledger", "capacity_method": "floor_ouln", "active_pip": 0, "licensed": 0, "com_floors": [1, 2, 3], "occ_floors": [], "unknown_n": 1, "id": "4128510400108490001-1", "pnu": "4128510400108490001", "floors": 0, "height": 0.0}}, {"type": "Feature", "geometry": {"type": "Polygon", "coordinates": [[[126.77117515, 37.65622823], [126.77123128, 37.65625374], [126.771602, 37.65638998], [126.77168576, 37.65642258], [126.77174567, 37.65632359], [126.77172803, 37.65627625], [126.77171927, 37.65624966], [126.77171282, 37.65620766], [126.77170985, 37.65610503], [126.77179223, 37.6559286], [126.77157908, 37.65584808], [126.77142062, 37.65611347], [126.77133142, 37.65608176], [126.77123722, 37.6561278], [126.77117515, 37.65622823]]]}, "properties": {"name": "웨스턴돔", "status": "full", "capacity": 270, "active": 270, "industry": "섬유·의복·신발 소매", "vacancy_rate": 0.0, "vacancy_rate_lo": null, "vacancy_rate_hi": null, "stores": 270, "source": "stores+ledger", "capacity_method": "expos_units", "active_pip": 0, "licensed": 0, "com_floors": null, "occ_floors": null, "unknown_n": null, "id": "4128510400108670000-9", "pnu": "4128510400108670000", "floors": 0, "height": 0.0}}, {"type": "Feature", "geometry": {"type": "Polygon", "coordinates": [[[126.77225979, 37.65718368], [126.77265394, 37.65733168], [126.77269188, 37.65726364], [126.77277983, 37.65729841], [126.77285536, 37.65717386], [126.77241309, 37.65700874], [126.77235309, 37.65702674], [126.77225979, 37.65718368]]]}, "properties": {"name": "낙원프라자", "status": "partial", "capacity": 49, "active": 34, "industry": "이용·미용", "vacancy_rate": 30.6, "vacancy_rate_lo": null, "vacancy_rate_hi": null, "stores": 34, "source": "stores+ledger", "capacity_method": "expos_units", "active_pip": 0, "licensed": 0, "com_floors": null, "occ_floors": null, "unknown_n": null, "id": "4128510400108560003-1", "pnu": "4128510400108560003", "floors": 10, "height": 37.4}}, {"type": "Feature", "geometry": {"type": "Polygon", "coordinates": [[[126.77355007, 37.65495573], [126.77403763, 37.65514443], [126.77413768, 37.65498232], [126.77385449, 37.65487057], [126.77395836, 37.65469244], [126.77424282, 37.65479919], [126.77430739, 37.65470213], [126.77398816, 37.6545755], [126.77398967, 37.65457075], [126.77379693, 37.65449538], [126.77371662, 37.65465819], [126.77370823, 37.6546555], [126.77358532, 37.65485172], [126.77359428, 37.6548556], [126.77355192, 37.65492249], [126.77356683, 37.65492786], [126.77355007, 37.65495573]]]}, "properties": {"name": "한솔프레미낭", "status": "full", "capacity": 4, "active": 4, "industry": "가구 소매", "vacancy_rate": 0.0, "vacancy_rate_lo": 0.0, "vacancy_rate_hi": 0.0, "stores": 7, "source": "stores+ledger", "capacity_method": "floor_ouln", "active_pip": 0, "licensed": 0, "com_floors": [1, 3, 13, 15], "occ_floors": [1, 3, 13, 15], "unknown_n": 0, "id": "4128510400108520001-1", "pnu": "4128510400108520001", "floors": 15, "height": 49.0}}, {"type": "Feature", "geometry": {"type": "Polygon", "coordinates": [[[126.77000758, 37.65785049], [126.76999284, 37.65785254], [126.76999914, 37.65786869], [126.77001393, 37.65788384], [126.77003249, 37.65789443], [126.77004698, 37.65789932], [126.77006522, 37.6579017], [126.77008561, 37.6579021], [126.77010216, 37.65790033], [126.77012157, 37.65789262], [126.77013769, 37.65788292], [126.77014872, 37.65787069], [126.7701551, 37.65785917], [126.77015752, 37.65784656], [126.77015745, 37.65783413], [126.77015747, 37.65782773], [126.77015305, 37.65782772], [126.77014848, 37.65783898], [126.77013847, 37.65785166], [126.77011394, 37.65786639], [126.77009126, 37.65787355], [126.77006802, 37.65787504], [126.77004276, 37.65787192], [126.77002634, 37.65786595], [126.77001367, 37.65785808], [126.77000758, 37.65785049]]]}, "properties": {"name": "일산문화광장", "status": "partial", "capacity": 2, "active": 1, "industry": "비알코올 ", "vacancy_rate": 50.0, "vacancy_rate_lo": 50.0, "vacancy_rate_hi": 100.0, "stores": 1, "source": "stores+ledger", "capacity_method": "floor_ouln", "active_pip": 0, "licensed": 0, "com_floors": [1, 2], "occ_floors": [], "unknown_n": 1, "id": "4128510400108450000-3", "pnu": "4128510400108450000", "floors": 0, "height": 0.0}}, {"type": "Feature", "geometry": {"type": "Polygon", "coordinates": [[[126.77364125, 37.65744262], [126.77357547, 37.65745925], [126.77333167, 37.65787584], [126.77333538, 37.65788593], [126.77385745, 37.65808363], [126.77409224, 37.65768595], [126.77405002, 37.65759496], [126.77364125, 37.65744262]]]}, "properties": {"name": "웅신아트", "status": "full", "capacity": 72, "active": 72, "industry": "이용·미용", "vacancy_rate": 0.0, "vacancy_rate_lo": null, "vacancy_rate_hi": null, "stores": 72, "source": "stores+ledger", "capacity_method": "expos_units", "active_pip": 0, "licensed": 0, "com_floors": null, "occ_floors": null, "unknown_n": null, "id": "4128510400108470000-3", "pnu": "4128510400108470000", "floors": 6, "height": 26.45}}, {"type": "Feature", "geometry": {"type": "Polygon", "coordinates": [[[126.76997758, 37.65711343], [126.7700944, 37.657157], [126.77015706, 37.65705062], [126.77008654, 37.65702436], [126.77011433, 37.6569772], [126.77018338, 37.65700292], [126.77021461, 37.65694992], [126.77022293, 37.65693588], [126.77023455, 37.65691599], [126.76997759, 37.65681881], [126.76983508, 37.65676492], [126.76978018, 37.65677959], [126.76965531, 37.65699333], [126.76997758, 37.65711343]]]}, "properties": {"name": "하이베라스", "status": "high", "capacity": 59, "active": 16, "industry": "일식", "vacancy_rate": 72.9, "vacancy_rate_lo": null, "vacancy_rate_hi": null, "stores": 16, "source": "stores+ledger", "capacity_method": "expos_units", "active_pip": 0, "licensed": 0, "com_floors": null, "occ_floors": null, "unknown_n": null, "id": "4128510400108640003-1", "pnu": "4128510400108640003", "floors": 8, "height": 32.8}}, {"type": "Feature", "geometry": {"type": "Polygon", "coordinates": [[[126.77075465, 37.65735662], [126.77059803, 37.65762137], [126.77062369, 37.65767607], [126.7709218, 37.65778532], [126.77099173, 37.65776523], [126.77114589, 37.65750067], [126.77075465, 37.65735662]]]}, "properties": {"name": "장항동근생", "status": "partial", "capacity": 37, "active": 29, "industry": "의원", "vacancy_rate": 21.6, "vacancy_rate_lo": null, "vacancy_rate_hi": null, "stores": 29, "source": "stores+ledger", "capacity_method": "expos_units", "active_pip": 0, "licensed": 0, "com_floors": null, "occ_floors": null, "unknown_n": null, "id": "4128510400108610000-1", "pnu": "4128510400108610000", "floors": 5, "height": 27.8}}, {"type": "Feature", "geometry": {"type": "Polygon", "coordinates": [[[126.76985069, 37.65499244], [126.76957417, 37.65546734], [126.76949514, 37.65555413], [126.76969277, 37.65562886], [126.76969777, 37.65562491], [126.76996515, 37.65572093], [126.76996139, 37.65572949], [126.76997757, 37.65573546], [126.77063058, 37.65598011], [126.77107363, 37.65614676], [126.77144813, 37.65550266], [126.77039281, 37.65511235], [126.77007724, 37.65499244], [126.76997762, 37.65499242], [126.76985069, 37.65499244]]]}, "properties": {"name": "SK엠시티오피스텔", "status": "full", "capacity": 109, "active": 109, "industry": "한식", "vacancy_rate": 0.0, "vacancy_rate_lo": null, "vacancy_rate_hi": null, "stores": 109, "source": "stores+ledger", "capacity_method": "expos_units", "active_pip": 0, "licensed": 0, "com_floors": null, "occ_floors": null, "unknown_n": null, "id": "4128510400108690000-1", "pnu": "4128510400108690000", "floors": 15, "height": 71.2}}, {"type": "Feature", "geometry": {"type": "Polygon", "coordinates": [[[126.77374998, 37.65569402], [126.77422497, 37.65587054], [126.77429392, 37.65584588], [126.77448462, 37.65551466], [126.77450547, 37.65549095], [126.77448741, 37.65545063], [126.77399422, 37.65527613], [126.77391585, 37.65541441], [126.7740093, 37.65544661], [126.77397927, 37.65549303], [126.77403248, 37.65551173], [126.77402335, 37.65552307], [126.77428552, 37.65561655], [126.77423721, 37.65569186], [126.77420996, 37.65568458], [126.77422825, 37.6556526], [126.77416465, 37.65563078], [126.77414507, 37.6556576], [126.77397765, 37.6555984], [126.77397241, 37.65560975], [126.7739205, 37.65558899], [126.7738996, 37.65562717], [126.77381265, 37.65559498], [126.77374998, 37.65569402]]]}, "properties": {"name": "라이저오피스텔", "status": "full", "capacity": 10, "active": 10, "industry": "비알코올 ", "vacancy_rate": 0.0, "vacancy_rate_lo": null, "vacancy_rate_hi": null, "stores": 10, "source": "stores+ledger", "capacity_method": "expos_units", "active_pip": 0, "licensed": 0, "com_floors": null, "occ_floors": null, "unknown_n": null, "id": "4128510400108530000-1", "pnu": "4128510400108530000", "floors": 10, "height": 34.3}}]}